Timestamp,Humidity,Dew Point,Wind Speed,UV Index,Visibility,Cloud Cover,Pressure,Temperature
2021-11-11T00:30:00+05:30,87,17.2,3.7,0,6.4,100,1010.8,19.4
2021-11-11T08:41:00+05:30,86,16.8,18.1,1,16.1,100,1012,19.1
2021-11-11T09:40:00+05:30,91,17.8,5.6,2,6.4,100,1012,19.2
2021-11-11T10:36:00+05:30,83,16.4,26.7,2,6.4,100,1012,19.4
2021-11-11T11:55:00+05:30,80,15.9,41.4,3,16.1,100,1011,19.5
2021-11-11T13:16:00+05:30,86,16,25,3,8,100,1009,18.3
2021-11-11T13:31:00+05:30,87,16,25,2,8,100,1010.2,18.1
2021-11-11T14:31:00+05:30,90,16.4,22.6,1,6.4,100,1010.5,18
2021-11-11T15:31:00+05:30,90,18.1,17.6,1,6.4,100,1010.5,19.7
2021-11-11T17:30:00+05:30,96,18.8,20.5,0,6.4,100,1010.2,19.5
2021-11-11T18:55:00+05:30,90,17.8,20.7,0,6.4,100,1009,19.5
2021-11-11T20:05:00+05:30,87,17.2,20.9,0,6.4,100,1009,19.4
2021-11-11T20:56:00+05:30,98,17.7,9.3,0,6.4,100,1010,18
2021-11-11T21:55:00+05:30,82,16.3,20.7,0,6.4,100,1010,19.3
2021-11-11T22:35:00+05:30,82,16.3,20.7,0,6.4,100,1010,19.5
2021-11-11T23:35:00+05:30,80,16.2,20.5,0,4.8,100,1009,19.7
2021-11-12T00:41:00+05:30,88,17.8,7.4,0,4.8,100,1008.1,19.8
2021-11-12T01:21:00+05:30,81,16.4,18.8,0,4.8,100,1008.1,19.8
2021-11-12T08:30:00+05:30,82,18.1,17.1,1,16.1,94,1006.1,21.2
2021-11-12T09:25:00+05:30,82,18.1,18.1,1,16.1,94,1011,21.2
2021-11-12T10:25:00+05:30,81,17.9,17.7,3,16.1,94,1012,21.4
2021-11-12T11:26:00+05:30,78,17.6,17.1,3,9.7,94,1011,21.5
2021-11-12T12:30:00+05:30,92,20,0,2,9.7,100,1010,21.4
2021-11-12T13:26:00+05:30,83,18.5,12.4,3,6.4,100,1009,21.4
2021-11-12T14:25:00+05:30,84,18.8,9.2,2,6.4,100,1009,21.6
2021-11-12T15:26:00+05:30,93,19.8,3.7,1,6.4,100,1008,21
2021-11-12T16:21:00+05:30,87,19.5,5.8,1,6.4,100,1009,21.8
2021-11-12T17:26:00+05:30,88,19.5,6.4,0,16.1,100,1009,21.6
2021-11-12T20:16:00+05:30,88,19.2,6.2,0,4.8,100,1011,21.2
2021-11-12T20:30:00+05:30,89,19.2,6.2,0,4.8,100,1006.8,21
2021-11-12T21:25:00+05:30,98,20.7,5,0,9.7,100,1012,21
2021-11-12T22:25:00+05:30,87,18.8,5.6,0,16.1,99,1012,21
2021-11-12T23:26:00+05:30,87,18.7,5.6,0,16.1,99,1012,20.9
2021-11-13T00:31:00+05:30,98,20.7,0,0,16.1,100,1008.8,21
2021-11-13T01:26:00+05:30,87,18.8,3.6,0,16.1,99,1008.8,21
2021-11-13T02:16:00+05:30,87,19,3.6,0,16.1,99,1009.8,21.3
2021-11-13T12:46:00+05:30,86,20.8,7.2,5,16.1,76,1011,23.2
2021-11-13T13:26:00+05:30,80,19.6,6.2,2,3.2,98,1011,23.2
2021-11-13T15:26:00+05:30,86,21.2,4.3,2,9.7,88,1010,23.6
2021-11-13T15:26:00+05:30,86,21.2,4.3,2,9.7,88,1010,23.6
2021-11-13T16:26:00+05:30,80,20.4,4.3,1,4.8,96,1010,24
2021-11-13T17:26:00+05:30,85,20.9,3.8,0,8,98,1010,23.5
2021-11-13T18:31:00+05:30,94,21.4,2.8,0,6.4,88,1009.1,22.4
2021-11-13T20:11:00+05:30,93,20.7,5.1,0,4.8,100,1012,21.9
2021-11-13T20:31:00+05:30,96,20.7,5.1,0,4.8,100,1006.8,21.3
2021-11-13T21:31:00+05:30,100,21.3,5.6,0,4.8,88,1007.1,21.3
2021-11-13T22:26:00+05:30,93,20.2,7,0,4.8,100,1013,21.3
2021-11-13T23:31:00+05:30,93,20.1,8.3,0,3.2,100,1007.8,21.2
2021-11-14T00:26:00+05:30,96,21,8.3,0,3.2,100,1013,21.6
2021-11-14T01:31:00+05:30,91,19.8,9.4,0,3.2,100,1009.8,21.4
2021-11-14T10:31:00+05:30,80,19.6,7.3,2,6.4,100,1009.5,23.2
2021-11-14T13:06:00+05:30,72,17.3,6,3,8,100,1012,22.5
2021-11-14T13:26:00+05:30,72,17.3,6,3,8,100,1012,22.5
2021-11-14T15:41:00+05:30,83,22.3,5.6,2,8,76,1010,25.3
2021-11-14T16:26:00+05:30,79,21.5,4.5,1,8,100,1010,25.3
2021-11-14T17:16:00+05:30,85,21.7,2.6,0,4.8,100,1010,24.4
2021-11-14T18:16:00+05:30,85,21.6,0,0,4.8,100,1010,24.2
2021-11-14T19:16:00+05:30,92,21.2,2.3,0,4.8,100,1011,22.6
2021-11-14T19:21:00+05:30,92,21.2,2.3,0,4.8,100,1011,22.6
2021-11-14T19:31:00+05:30,97,21.2,2.3,0,4.8,100,1007.5,21.7
2021-11-14T20:21:00+05:30,92,20.4,3.8,0,4.8,100,1012,21.7
2021-11-14T21:16:00+05:30,91,20.9,0,0,16.1,88,1013,22.4
2021-11-14T22:16:00+05:30,93,19.7,4.1,0,16.1,94,1013,20.9
2021-11-14T22:51:00+05:30,93,19.8,3.2,0,3.2,94,1013,21
2021-11-14T23:36:00+05:30,92,19.8,3.2,0,3.2,94,1013,21.2
2021-11-15T00:26:00+05:30,96,21.4,2.4,0,16.1,88,1013,22
2021-11-15T01:21:00+05:30,90,19.7,3,0,16.1,94,1007.8,21.3
2021-11-15T01:21:00+05:30,90,19.7,3,0,16.1,94,1007.8,21.3
2021-11-15T02:16:00+05:30,89,19.6,3.4,0,16.1,94,1008.8,21.5
2021-11-15T03:16:00+05:30,95,20.3,3.3,0,16.1,88,1009.8,21.2
2021-11-15T04:21:00+05:30,90,19.2,4.1,0,16.1,94,1010.2,20.8
2021-11-15T05:21:00+05:30,90,19,4.9,0,16.1,94,1010.5,20.6
2021-11-15T06:21:00+05:30,96,20.4,0,0,16.1,88,1012,21
2021-11-15T07:16:00+05:30,88,19.6,6.6,0,16.1,94,1012,21.6
2021-11-15T08:16:00+05:30,86,19.6,7.7,1,16.1,94,1013,22.1
2021-11-15T09:16:00+05:30,93,20.6,0,3,16.1,76,1013,21.8
2021-11-15T10:16:00+05:30,86,19.9,8.8,3,16.1,94,1012,22.4
2021-11-15T11:16:00+05:30,88,22.2,8.5,3,16.1,94,1012,24.3
2021-11-15T12:16:00+05:30,82,21.4,0,6,16.1,76,1011,24.6
2021-11-15T14:36:00+05:30,75,20,12,1,4.8,99,1008,24.7
2021-11-15T15:26:00+05:30,77,21.9,10.2,3,6.4,76,1008,26.2
2021-11-15T17:06:00+05:30,84,20.7,9,0,16.1,94,1008,23.5
2021-11-15T17:31:00+05:30,87,20.7,9,0,16.1,94,1008.5,22.9
2021-11-15T18:16:00+05:30,79,21.4,7.2,0,16.1,88,1009,25.2
2021-11-15T18:31:00+05:30,94,21.4,7.2,0,16.1,88,1007.5,22.3
2021-11-15T19:16:00+05:30,91,20.9,7.9,0,4.8,100,1010,22.3
2021-11-15T19:31:00+05:30,95,20.9,7.9,0,4.8,100,1006.1,21.7
2021-11-15T20:16:00+05:30,92,20.4,7.7,0,4.8,100,1011,21.7
2021-11-15T20:31:00+05:30,96,20.4,7.7,0,4.8,100,1004.7,21.1
2021-11-15T21:16:00+05:30,96,20.8,6.7,0,4.8,100,1012,21.4
2021-11-15T21:31:00+05:30,99,20.8,6.7,0,4.8,100,1005.1,21
2021-11-16T03:16:00+05:30,96,20.6,0,0,4.8,50,1009.1,21.2
2021-11-16T04:16:00+05:30,90,19.7,8.3,0,4.8,98,1009.1,21.5
2021-11-16T05:16:00+05:30,89,19.7,8.8,0,4.8,96,1009.1,21.6
2021-11-16T06:21:00+05:30,100,20.6,8.2,0,4.8,76,1010,20.6
2021-11-16T07:16:00+05:30,87,20,10.5,0,16.1,93,1011,22.3
2021-11-16T08:21:00+05:30,86,20.2,11.7,1,16.1,92,1013,22.8
2021-11-16T09:15:00+05:30,85,20.7,18.5,3,16.1,30,1013,23.2
2021-11-16T10:16:00+05:30,77,20,12.8,4,16.1,76,1013,24.2
2021-11-16T11:16:00+05:30,72,19.8,12.6,6,16.1,59,1012,25.1
2021-11-16T12:16:00+05:30,95,22.3,5.6,6,16.1,76,1011,23.2
2021-11-16T13:16:00+05:30,70,17.6,11.3,3,9.7,99,1010,23.3
2021-11-16T14:16:00+05:30,89,20.1,10.2,2,4.8,99,1009,22
2021-11-16T15:16:00+05:30,74,21.5,0,3,16.1,76,1009,26.4
2021-11-16T16:16:00+05:30,86,21.4,8.8,1,16.1,94,1009,24
2021-11-16T17:16:00+05:30,86,21.2,8.5,0,16.1,94,1009,23.6
2021-11-16T19:46:00+05:30,97,20.6,7,0,4.8,94,1012,21.1
2021-11-16T20:16:00+05:30,93,20,6.2,0,4.8,94,1012,21.1
2021-11-16T21:16:00+05:30,91,21.3,3.7,0,16.1,76,1013,22.8
2021-11-16T22:16:00+05:30,93,19.3,3.2,0,16.1,94,1014,20.5
2021-11-16T23:16:00+05:30,91,19.3,1.7,0,16.1,94,1014,20.8
2021-11-17T00:17:00+05:30,89,19.8,3.7,0,16.1,100,1013,21.6
2021-11-17T01:16:00+05:30,89,19.2,5.1,0,16.1,94,1008.1,21.1
2021-11-17T02:16:00+05:30,87,19.1,6.2,0,16.1,94,1009.1,21.3
2021-11-17T03:16:00+05:30,94,19.1,7.5,0,16.1,94,1010.5,20
2021-11-17T04:16:00+05:30,94,19.5,6.8,0,16.1,94,1010.5,20.5
2021-11-17T05:16:00+05:30,94,19.8,6.4,0,16.1,94,1010.5,20.7
2021-11-17T06:21:00+05:30,95,20,6,0,16.1,94,1010.8,20.9
2021-11-17T07:21:00+05:30,94,20.1,7.5,0,16.1,100,1010.5,21
2021-11-17T08:21:00+05:30,93,20,9.2,1,16.1,100,1010.2,21.2
2021-11-17T09:16:00+05:30,90,19.7,10.9,1,6.4,100,1009.8,21.4
2021-11-17T10:16:00+05:30,85,19.7,9.8,3,16.1,80,1009.8,22.3
2021-11-17T11:16:00+05:30,78,19.4,9,6,16.1,61,1009.5,23.3
2021-11-17T12:16:00+05:30,78,19.1,7.9,7,16.1,42,1009.5,23.1
2021-11-17T13:16:00+05:30,69,17.6,13.7,5,9.7,78,1010.5,23.6
2021-11-17T14:16:00+05:30,88,19.9,14.9,2,3.2,89,1011.5,21.9
2021-11-17T15:16:00+05:30,82,20.3,16.2,1,8,100,1012.5,23.4
2021-11-17T16:16:00+05:30,79,21.9,13.5,1,16.1,100,1011,25.8
2021-11-17T17:16:00+05:30,83,21.6,10.9,0,16.1,100,1012,24.7
2021-11-17T18:16:00+05:30,86,21.2,8.5,0,16.1,100,1012,23.6
2021-11-17T19:16:00+05:30,88,20.5,3.7,0,16.1,100,1013,22.5
2021-11-17T20:16:00+05:30,94,20.4,6.6,0,16.1,94,1014,21.4
2021-11-17T21:16:00+05:30,94,19.4,5.8,0,6.4,94,1014,20.3
2021-11-17T22:16:00+05:30,94,19.5,3.8,0,16.1,94,1014,20.5
2021-11-18T00:16:00+05:30,92,19.4,1.7,0,6.4,94,1015,20.8
2021-11-18T00:55:00+05:30,90,19.2,2.8,0,16.1,94,1010.2,20.8
2021-11-18T01:16:00+05:30,90,19.2,2.8,0,16.1,94,1010.2,20.8
2021-11-18T02:16:00+05:30,88,18.9,3.8,0,16.1,94,1011.5,20.9
2021-11-18T03:16:00+05:30,93,19.2,5.1,0,16.1,94,1012.5,20.4
2021-11-18T04:16:00+05:30,93,19.1,6,0,8,94,1012.2,20.2
2021-11-18T05:16:00+05:30,92,19.2,7,0,16.1,94,1011.8,20.4
2021-11-18T06:16:00+05:30,92,19.3,8.3,0,8,94,1012,20.6
2021-11-18T07:21:00+05:30,92,19.4,10,0,16.1,94,1012,20.8
2021-11-18T08:16:00+05:30,91,19.6,12.2,1,16.1,94,1013,21
2021-11-18T09:15:00+05:30,91,19.7,14.5,1,16.1,94,1014,21.2
2021-11-18T10:15:00+05:30,90,19.7,13.7,2,6.4,94,1014,21.5
2021-11-18T11:16:00+05:30,89,19.8,12.8,3,16.1,94,1014,21.7
2021-11-18T12:16:00+05:30,93,19.9,12,3,6.4,94,1013,21.1
2021-11-18T13:16:00+05:30,89,19.3,14.5,3,3.2,100,1011,21.1
2021-11-18T14:16:00+05:30,90,19.4,11.7,2,3.2,100,1010,21.1
2021-11-18T15:16:00+05:30,91,19.6,9,1,4.8,100,1010,21.1
2021-11-18T16:16:00+05:30,93,20,9.6,1,3.2,94,1009,21.1
2021-11-18T17:16:00+05:30,93,19.9,11.1,0,1.6,94,1009,21
2021-11-18T18:16:00+05:30,93,19.8,12.6,0,16.1,94,1009,20.9
2021-11-18T19:16:00+05:30,93,19.7,12.2,0,16.1,94,1009,20.8
2021-11-18T20:16:00+05:30,92,19.5,11.5,0,4.8,94,1011,20.9
2021-11-18T21:16:00+05:30,98,20.1,0,0,3.2,100,1010,20.4
2021-11-18T22:16:00+05:30,87,19.2,12,0,3.2,94,1011,21.4
2021-11-18T23:15:00+05:30,86,19.1,13,0,3.2,94,1010,21.5
2021-11-19T00:17:00+05:30,98,20.1,3.7,0,16.1,100,1010,20.4
2021-11-19T01:16:00+05:30,85,19,14.5,0,3.2,94,1008.8,21.6
2021-11-19T02:16:00+05:30,85,19.1,14.9,0,3.2,94,1009.1,21.7
2021-11-19T03:16:00+05:30,98,19.9,3.7,0,3.2,100,1009.8,20.2
2021-11-19T04:16:00+05:30,85,18.9,16,0,16.1,94,1009.5,21.5
2021-11-19T05:16:00+05:30,84,18.8,16.4,0,3.2,94,1009.5,21.6
2021-11-19T06:21:00+05:30,98,19.9,0,0,16.1,88,1008,20.2
2021-11-19T07:21:00+05:30,85,19.3,15.6,0,16.1,94,1009,21.8
2021-11-19T08:21:00+05:30,87,19.8,14.9,1,16.1,94,1009,22
2021-11-19T09:16:00+05:30,98,20.5,0,1,16.1,100,1009,20.8
2021-11-19T10:16:00+05:30,88,20.4,13,2,4.8,94,1009,22.4
2021-11-19T11:16:00+05:30,87,20.4,11.5,2,4.8,94,1009,22.6
2021-11-19T12:16:00+05:30,98,21.3,5.6,3,16.1,100,1008,21.6
2021-11-19T13:16:00+05:30,84,19.4,19.6,3,6.4,99,1007,22.2
2021-11-19T14:16:00+05:30,81,19,19.6,2,6.4,99,1006,22.5
2021-11-19T15:16:00+05:30,95,21.1,17.4,1,6.4,100,1006,22
2021-11-19T16:16:00+05:30,82,20.1,16.4,1,16.1,94,1005,23.2
2021-11-19T17:16:00+05:30,86,20.6,13.2,0,16.1,94,1006,23
2021-11-19T18:16:00+05:30,96,21,9.3,0,16.1,100,1006,21.6
2021-11-19T19:16:00+05:30,91,20.9,9.2,0,6.4,99,1007,22.4
2021-11-19T20:16:00+05:30,91,20.5,7.7,0,4.8,99,1007,22.1
2021-11-19T21:16:00+05:30,98,20.7,5.6,0,4.8,75,1008,21
2021-11-19T22:16:00+05:30,90,20.1,2.8,0,4.8,100,1008,21.8
2021-11-19T23:16:00+05:30,90,20,0.6,0,4.8,100,1009,21.8
2021-11-20T00:16:00+05:30,98,20.5,3.7,0,4.8,88,1009,20.8
2021-11-20T01:16:00+05:30,89,19.9,6.8,0,4.8,100,1004.7,21.9
2021-11-20T02:16:00+05:30,88,19.9,9.6,0,3.2,100,1005.8,21.9
2021-11-20T03:16:00+05:30,91,19.8,12.2,0,3.2,100,1006.4,21.3
2021-11-20T04:21:00+05:30,91,19.7,12,0,4.8,100,1006.4,21.2
2021-11-20T05:16:00+05:30,91,19.6,11.7,0,4.8,100,1006.4,21.1
2021-11-20T06:16:00+05:30,98,20.3,10.2,0,4.8,88,1008,20.6
2021-11-20T07:16:00+05:30,90,20,13.5,0,8,94,1009,21.6
2021-11-20T08:16:00+05:30,90,20,15.2,1,16.1,94,1010,21.7
2021-11-20T09:16:00+05:30,98,20.5,5.6,1,16.1,100,1011,20.8
2021-11-20T10:16:00+05:30,85,19.9,16.4,2,16.1,94,1011,22.5
2021-11-20T11:16:00+05:30,82,20,16.2,3,16.1,94,1011,23.3
2021-11-20T12:17:00+05:30,95,21.1,48.2,7,16.1,13,1010,21.9
2021-11-20T13:16:00+05:30,79,18.4,15.2,3,8,98,1009,22.1
2021-11-20T14:16:00+05:30,83,19.2,14.5,2,8,98,1008,22.3
2021-11-20T15:16:00+05:30,95,20.7,0,1,6.4,100,1009,21.6
2021-11-20T18:16:00+05:30,93,20.6,0,0,6.4,100,1009,21.8
2021-11-20T19:16:00+05:30,94,21.3,15.2,0,4.8,100,1010,22.2
2021-11-20T20:16:00+05:30,94,20.6,14.9,0,16.1,100,1011,21.7
2021-11-20T21:16:00+05:30,95,20.5,3.7,0,16.1,100,1012,21.4
2021-11-20T22:16:00+05:30,92,19.9,13.9,0,16.1,100,1012,21.2
2021-11-20T23:16:00+05:30,91,19.9,12.8,0,6.4,100,1012,21.4
2021-11-21T00:16:00+05:30,96,20,3.7,0,6.4,88,1013,20.6
2021-11-21T02:16:00+05:30,87,19.7,12.4,0,16.1,100,1009.1,21.9
2021-11-21T03:16:00+05:30,96,19.8,0,0,16.1,100,1010.2,20.4
2021-11-21T04:16:00+05:30,93,20.3,11.5,0,16.1,100,1010.2,21.5
2021-11-21T05:16:00+05:30,94,20.7,10.5,0,8,100,1010.5,21.8
2021-11-21T06:16:00+05:30,96,19.4,0,0,16.1,63,1011,20
2021-11-21T08:16:00+05:30,90,21.1,11.1,1,16.1,98,1013,22.8
2021-11-21T09:16:00+05:30,96,20.4,0,2,16.1,76,1014,21
2021-11-21T10:21:00+05:30,80,19.9,10.7,2,16.1,97,1014,23.5
2021-11-21T11:16:00+05:30,74,19.1,9.6,3,16.1,97,1014,23.9
2021-11-21T12:16:00+05:30,72,20.1,0,5,16.1,76,1013,25.4
2021-11-21T13:16:00+05:30,63,17,6.8,5,11.3,77,1012,24.5
2021-11-21T14:16:00+05:30,60,17.1,6.6,4,11.3,68,1012,25.3
2021-11-21T15:16:00+05:30,84,22.1,0,1,11.3,100,1011,25
2021-11-21T16:16:00+05:30,88,20.9,2.6,1,3.2,72,1011,22.9
2021-11-21T17:16:00+05:30,91,21.6,4.7,0,6.4,86,1012,23.2
2021-11-21T18:16:00+05:30,85,21.8,0,0,6.4,88,1012,24.4
2021-11-21T19:16:00+05:30,92,21.1,6.8,0,6.4,99,1013,22.5
2021-11-21T20:16:00+05:30,90,19.9,4.1,0,6.4,99,1015,21.5
2021-11-21T22:16:00+05:30,91,19.5,0.2,0,4.8,99,1016,21
2021-11-21T23:16:00+05:30,88,19.4,1.3,0,4.8,99,1016,21.4
2021-11-22T00:16:00+05:30,95,20.5,0,0,4.8,88,1015,21.4
2021-11-22T01:16:00+05:30,85,19.7,3.4,0,4.8,96,1010.8,22.4
2021-11-22T02:16:00+05:30,84,20,4.1,0,4.8,93,1011.8,22.9
2021-11-22T03:16:00+05:30,98,20.7,0,0,4.8,88,1012.9,21
2021-11-22T04:16:00+05:30,87,18.7,5.3,0,4.8,86,1012.9,21
2021-11-22T05:16:00+05:30,89,19.4,5.8,0,4.8,82,1012.9,21.3
2021-11-22T06:16:00+05:30,100,20.8,5.4,0,4.8,63,1015,20.8
2021-11-22T07:16:00+05:30,90,20.3,7.7,1,6.4,82,1015,21.9
2021-11-22T08:16:00+05:30,89,20.3,9.6,1,6.4,86,1016,22.2
2021-11-22T09:16:00+05:30,95,21.3,0,1,6.4,100,1017,22.2
2021-11-22T10:16:00+05:30,79,19.2,10.5,3,8,92,1016,22.9
2021-11-22T11:16:00+05:30,73,18.3,9.4,3,8,92,1016,23.2
2021-11-22T12:16:00+05:30,79,21.2,5.6,5,6.4,76,1015,25
2021-11-22T13:16:00+05:30,61,15.9,9,3,8,91,1014,23.7
2021-11-22T14:16:00+05:30,61,16.7,7.9,2,9.7,95,1013,24.6
2021-11-22T15:16:00+05:30,81,21.5,3.7,2,3.2,76,1012,25
2021-11-22T16:16:00+05:30,84,21.2,7.3,1,16.1,99,1012,24
2021-11-22T17:16:00+05:30,87,21.3,6.8,0,16.1,98,1012,23.6
2021-11-22T18:16:00+05:30,78,21.1,3.7,0,16.1,88,1013,25.2
2021-11-22T19:17:00+05:30,89,20.4,6.2,0,16.1,94,1014,22.2
2021-11-22T20:16:00+05:30,90,19.5,5.6,0,16.1,94,1015,21.2
2021-11-22T21:16:00+05:30,86,20.4,3.7,0,16.1,63,1015,22.8
2021-11-22T22:16:00+05:30,92,18.6,6.2,0,16.1,94,1016,20
2021-11-22T23:16:00+05:30,92,18.8,7.3,0,16.1,94,1016,20.2
2021-11-23T00:16:00+05:30,91,19.5,3.7,0,16.1,25,1015,21
2021-11-23T01:16:00+05:30,92,19.3,8.5,0,16.1,94,1011.2,20.6
2021-11-23T02:16:00+05:30,92,19.3,8.5,0,16.1,94,1012.2,20.7
2021-11-23T03:16:00+05:30,93,19.6,0,0,16.1,50,1013.2,20.8
2021-11-23T04:16:00+05:30,90,20.2,6.8,0,16.1,94,1013.2,22
2021-11-23T05:16:00+05:30,91,18.7,5.8,0,16.1,94,1012.9,20.2
2021-11-23T06:16:00+05:30,93,19.2,0,0,16.1,76,1014,20.4
2021-11-23T07:16:00+05:30,90,19.7,7.3,0,16.1,97,1015,21.4
2021-11-23T08:16:00+05:30,86,19.5,9.8,1,16.1,98,1015,21.9
2021-11-23T09:16:00+05:30,79,19.7,5.6,3,8,50,1016,23.6
2021-11-23T10:16:00+05:30,74,18.4,12.6,3,16.1,78,1016,23.1
2021-11-23T11:16:00+05:30,69,17.7,12.8,6,16.1,57,1015,23.7
2021-11-23T12:16:00+05:30,68,20.8,3.7,6,16.1,63,1014,27.2
2021-11-23T13:21:00+05:30,64,17.2,12.8,6,16.1,49,1013,24.3
2021-11-23T14:16:00+05:30,64,18,12.2,4,16.1,45,1013,25.1
2021-11-23T15:16:00+05:30,61,20.2,0,3,16.1,63,1012,28.4
2021-11-23T16:16:00+05:30,70,21,10,2,16.1,46,1011,26.7
2021-11-23T17:16:00+05:30,74,20.8,8.3,1,16.1,51,1012,25.6
2021-11-23T18:16:00+05:30,72,20.7,0,0,16.1,75,1012,26
2021-11-23T19:16:00+05:30,81,20.2,7.7,0,16.1,70,1013,23.5
2021-11-23T20:16:00+05:30,84,19.6,9,0,16.1,85,1014,22.4
"2021-11-23T21:16:00+05:30",83,20.8,0,0,16.1,63,1015,23.8
"2021-11-23T22:16:00+05:30",91,19.3,8.5,0,16.1,100,1016,20.7
