Area,Epoch Time,Time,Temp in C,Temp in F,Is_Day,Condition,Icon,Code,Wind Speed(mph),Wind Speed(kph),Wind Degree,Wind Direction,Pressure in MB,Pressure in IN,Precipitation in MM,Precipitation in IN,Humidity,Cloud,FeelsLike in C,FeelsLike in F,Windchill in C,Windchill in F,HeatIndex in C,HeatIndex in F,Dewpoint in C,Dewpoint in F,Will_it_rain,Chance_of_rain,Will_it_snow,Chance _of_snow,Visibility in KM,Visibility in Miles,Gust in Mph,Gust in Kph
Lucknow,1636569000,11/11/2021 0:00,20.6,69.1,0,Clear,//cdn.weatherapi.com/weather/64x64/night/113.png,1000,1.6,2.5,50,NE,1012,29.9,0,0,47,0,20.6,69.1,20.6,69.1,20.6,69.1,8.8,47.8,0,0,0,0,10,6,3.4,5.4
Lucknow,1636572600,11/11/2021 1:00,20.2,68.4,0,Clear,//cdn.weatherapi.com/weather/64x64/night/113.png,1000,1.9,3.1,42,NE,1012,29.89,0,0,48,0,20.2,68.4,20.2,68.4,20.2,68.4,8.9,48,0,0,0,0,10,6,4.1,6.6
Lucknow,1636576200,11/11/2021 2:00,19.8,67.6,0,Clear,//cdn.weatherapi.com/weather/64x64/night/113.png,1000,2.3,3.7,34,NE,1012,29.88,0,0,50,0,19.8,67.6,19.8,67.6,19.8,67.6,9,48.2,0,0,0,0,10,6,4.8,7.8
Lucknow,1636579800,11/11/2021 3:00,19.4,66.9,0,Clear,//cdn.weatherapi.com/weather/64x64/night/113.png,1000,2.7,4.3,26,NNE,1012,29.88,0,0,51,0,19.4,66.9,19.4,66.9,19.4,66.9,9.1,48.4,0,0,0,0,10,6,5.6,9
Lucknow,1636583400,11/11/2021 4:00,19.1,66.3,0,Clear,//cdn.weatherapi.com/weather/64x64/night/113.png,1000,2.3,3.7,49,NE,1012,29.89,0,0,52,0,19.1,66.3,19.1,66.3,19.1,66.3,9.2,48.5,0,0,0,0,10,6,4.8,7.8
Lucknow,1636587000,11/11/2021 5:00,18.7,65.7,0,Clear,//cdn.weatherapi.com/weather/64x64/night/113.png,1000,1.9,3.1,73,ENE,1012,29.9,0,0,54,0,18.7,65.7,18.7,65.7,18.7,65.7,9.2,48.6,0,0,0,0,10,6,4.1,6.6
Lucknow,1636590600,11/11/2021 6:00,18.4,65.1,0,Clear,//cdn.weatherapi.com/weather/64x64/night/113.png,1000,1.6,2.5,96,E,1013,29.91,0,0,55,0,18.4,65.1,18.4,65.1,18.4,65.1,9.3,48.7,0,0,0,0,10,6,3.4,5.4
Lucknow,1636594200,11/11/2021 7:00,20.2,68.4,1,Sunny,//cdn.weatherapi.com/weather/64x64/day/113.png,1000,2.1,3.4,108,ESE,1013,29.92,0,0,51,0,20.2,68.4,20.2,68.4,20.5,69,9.5,49.2,0,0,0,0,10,6,3.5,5.6
Lucknow,1636597800,11/11/2021 8:00,22,71.6,1,Sunny,//cdn.weatherapi.com/weather/64x64/day/113.png,1000,2.6,4.2,119,ESE,1014,29.94,0,0,46,0,22,71.6,22,71.6,22.7,72.8,9.8,49.6,0,0,0,0,10,6,3.7,5.9
Lucknow,1636601400,11/11/2021 9:00,23.8,74.8,1,Sunny,//cdn.weatherapi.com/weather/64x64/day/113.png,1000,3.1,5,131,SE,1014,29.95,0,0,42,0,24.8,76.6,23.8,74.8,24.8,76.6,10,50,0,0,0,0,10,6,3.8,6.1
Lucknow,1636605000,11/11/2021 10:00,26.1,78.9,1,Sunny,//cdn.weatherapi.com/weather/64x64/day/113.png,1000,2.6,4.2,126,SE,1013,29.92,0,0,37,0,26.3,79.4,26.1,78.9,26.3,79.4,10.2,50.4,0,0,0,0,10,6,3.1,5
Lucknow,1636608600,11/11/2021 11:00,28.3,83,1,Sunny,//cdn.weatherapi.com/weather/64x64/day/113.png,1000,2.1,3.4,121,ESE,1013,29.9,0,0,33,0,27.9,82.2,28.3,83,27.9,82.2,10.4,50.7,0,0,0,0,10,6,2.5,4
Lucknow,1636612200,11/11/2021 12:00,30.6,87.1,1,Sunny,//cdn.weatherapi.com/weather/64x64/day/113.png,1000,1.6,2.5,115,ESE,1012,29.88,0,0,29,0,29.4,84.9,30.6,87.1,29.4,84.9,10.6,51.1,0,0,0,0,10,6,1.8,2.9
Lucknow,1636615800,11/11/2021 13:00,30.7,87.3,1,Sunny,//cdn.weatherapi.com/weather/64x64/day/113.png,1000,1.6,2.6,196,SSW,1011,29.85,0,0,28,0,29.4,85,30.7,87.3,29.4,85,10.3,50.5,0,0,0,0,10,6,1.9,3
Lucknow,1636619400,11/11/2021 14:00,30.8,87.4,1,Sunny,//cdn.weatherapi.com/weather/64x64/day/113.png,1000,1.7,2.8,277,W,1010,29.83,0,0,28,0,29.5,85,30.8,87.4,29.5,85,9.9,49.9,0,0,0,0,10,6,1.9,3.1
Lucknow,1636623000,11/11/2021 15:00,30.9,87.6,1,Sunny,//cdn.weatherapi.com/weather/64x64/day/113.png,1000,1.8,2.9,357,N,1010,29.81,0,0,27,0,29.5,85.1,30.9,87.6,29.5,85.1,9.6,49.3,0,0,0,0,10,6,2,3.2
Lucknow,1636626600,11/11/2021 16:00,29.3,84.8,1,Sunny,//cdn.weatherapi.com/weather/64x64/day/113.png,1000,1.3,2.2,278,W,1010,29.82,0,0,31,0,28.4,83.1,29.3,84.8,28.4,83.1,10.1,50.1,0,0,0,0,10,6,1.6,2.5
Lucknow,1636630200,11/11/2021 17:00,27.8,82,1,Sunny,//cdn.weatherapi.com/weather/64x64/day/113.png,1000,0.9,1.4,200,SSW,1010,29.83,0,0,35,0,27.2,81,27.8,82,27.2,81,10.5,51,0,0,0,0,10,6,1.1,1.8
Lucknow,1636633800,11/11/2021 18:00,26.2,79.2,0,Clear,//cdn.weatherapi.com/weather/64x64/night/113.png,1000,0.4,0.7,121,ESE,1010,29.84,0,0,39,0,26.1,79,26.2,79.2,26.1,79,11,51.8,0,0,0,0,10,6,0.7,1.1
Lucknow,1636637400,11/11/2021 19:00,24.8,76.6,0,Clear,//cdn.weatherapi.com/weather/64x64/night/113.png,1000,1.1,1.8,141,SE,1011,29.85,0,0,40,0,25.4,77.8,24.8,76.6,25.4,77.8,10.1,50.2,0,0,0,0,10,6,2.2,3.5
Lucknow,1636641000,11/11/2021 20:00,23.4,74.1,0,Clear,//cdn.weatherapi.com/weather/64x64/night/113.png,1000,1.8,2.9,162,SSE,1012,29.87,0,0,41,0,24.8,76.6,23.4,74.1,24.8,76.6,9.3,48.7,0,0,0,0,10,6,3.7,5.9
Lucknow,1636644600,11/11/2021 21:00,22,71.6,0,Clear,//cdn.weatherapi.com/weather/64x64/night/113.png,1000,2.5,4,182,S,1012,29.89,0,0,42,0,24.1,75.4,22,71.6,24.1,75.4,8.4,47.1,0,0,0,0,10,6,5.1,8.3
Lucknow,1636648200,11/11/2021 22:00,21.6,70.8,0,Clear,//cdn.weatherapi.com/weather/64x64/night/113.png,1000,2.1,3.4,147,SSE,1012,29.89,0,0,43,0,21.6,70.8,21.6,70.8,23,73.3,8.4,47.1,0,0,0,0,10,6,4.4,7.1
Lucknow,1636651800,11/11/2021 23:00,21.1,70,0,Clear,//cdn.weatherapi.com/weather/64x64/night/113.png,1000,1.7,2.8,111,ESE,1012,29.89,0,0,44,0,21.1,70,21.1,70,21.8,71.3,8.4,47.1,0,0,0,0,10,6,3.7,5.9
Lucknow,1636655400,11/12/2021 0:00,20.7,69.3,0,Clear,//cdn.weatherapi.com/weather/64x64/night/113.png,1000,1.3,2.2,76,ENE,1012,29.89,0,0,45,0,20.7,69.3,20.7,69.3,20.7,69.3,8.4,47.1,0,0,0,0,10,6,2.9,4.7
Lucknow,1636659000,11/12/2021 1:00,20.3,68.5,0,Clear,//cdn.weatherapi.com/weather/64x64/night/113.png,1000,1.9,3,51,NE,1012,29.88,0,0,46,0,20.3,68.5,20.3,68.5,20.3,68.5,8.4,47.2,0,0,0,0,10,6,4,6.4
Lucknow,1636662600,11/12/2021 2:00,19.9,67.8,0,Clear,//cdn.weatherapi.com/weather/64x64/night/113.png,1000,2.4,3.8,26,NNE,1012,29.88,0,0,48,0,19.9,67.8,19.9,67.8,19.9,67.8,8.5,47.2,0,0,0,0,10,6,5,8
Lucknow,1636666200,11/12/2021 3:00,19.5,67.1,0,Clear,//cdn.weatherapi.com/weather/64x64/night/113.png,1000,2.9,4.7,2,N,1012,29.87,0,0,49,0,19.5,67.1,19.5,67.1,19.5,67.1,8.5,47.3,0,0,0,0,10,6,6,9.7
Lucknow,1636669800,11/12/2021 4:00,19.3,66.7,0,Clear,//cdn.weatherapi.com/weather/64x64/night/113.png,1000,2.4,3.8,118,ESE,1012,29.88,0,0,50,0,19.3,66.7,19.3,66.7,19.3,66.7,8.6,47.5,0,0,0,0,10,6,5,8
Lucknow,1636673400,11/12/2021 5:00,19,66.3,0,Clear,//cdn.weatherapi.com/weather/64x64/night/113.png,1000,1.9,3,234,SW,1012,29.89,0,0,51,0,19,66.3,19,66.3,19,66.3,8.7,47.7,0,0,0,0,10,6,4,6.4
Lucknow,1636677000,11/12/2021 6:00,18.8,65.8,0,Clear,//cdn.weatherapi.com/weather/64x64/night/113.png,1000,1.3,2.2,351,N,1013,29.91,0,0,52,0,18.8,65.8,18.8,65.8,18.8,65.8,8.8,47.8,0,0,0,0,10,6,2.9,4.7
Lucknow,1636680600,11/12/2021 7:00,20.3,68.6,1,Sunny,//cdn.weatherapi.com/weather/64x64/day/113.png,1000,1,1.7,315,NW,1013,29.93,0,0,49,0,20.3,68.6,20.3,68.6,20.7,69.3,9.1,48.4,0,0,0,0,10,6,2.1,3.4
Lucknow,1636684200,11/12/2021 8:00,21.9,71.4,1,Sunny,//cdn.weatherapi.com/weather/64x64/day/113.png,1000,0.7,1.2,280,W,1014,29.95,0,0,45,0,21.9,71.4,21.9,71.4,22.7,72.8,9.4,48.9,0,0,0,0,10,6,1.3,2
Lucknow,1636687800,11/12/2021 9:00,23.4,74.1,1,Sunny,//cdn.weatherapi.com/weather/64x64/day/113.png,1000,0.4,0.7,244,WSW,1015,29.97,0,0,42,0,24.6,76.3,23.4,74.1,24.6,76.3,9.7,49.5,0,0,0,0,10,6,0.4,0.7
Lucknow,1636691400,11/12/2021 10:00,25.6,78.1,1,Sunny,//cdn.weatherapi.com/weather/64x64/day/113.png,1000,0.9,1.4,248,WSW,1014,29.95,0,0,38,0,26.1,79,25.6,78.1,26.1,79,10.2,50.4,0,0,0,0,10,6,1,1.6
Lucknow,1636695000,11/12/2021 11:00,27.9,82.2,1,Sunny,//cdn.weatherapi.com/weather/64x64/day/113.png,1000,1.3,2.2,251,WSW,1013,29.92,0,0,35,0,27.7,81.8,27.9,82.2,27.7,81.8,10.8,51.4,0,0,0,0,10,6,1.5,2.4
Lucknow,1636698600,11/12/2021 12:00,30.1,86.2,1,Sunny,//cdn.weatherapi.com/weather/64x64/day/113.png,1000,1.8,2.9,255,WSW,1012,29.9,0,0,31,0,29.2,84.6,30.1,86.2,29.2,84.6,11.3,52.3,0,0,0,0,10,6,2,3.2
Lucknow,1636702200,11/12/2021 13:00,30.1,86.2,1,Sunny,//cdn.weatherapi.com/weather/64x64/day/113.png,1000,2.8,4.4,273,W,1012,29.88,0,0,31,0,29.2,84.5,30.1,86.2,29.2,84.5,11,51.9,0,0,0,0,10,6,3.1,5
Lucknow,1636705800,11/12/2021 14:00,30.2,86.3,1,Sunny,//cdn.weatherapi.com/weather/64x64/day/113.png,1000,3.7,6,291,WNW,1011,29.86,0,0,30,0,29.1,84.4,30.2,86.3,29.1,84.4,10.8,51.4,0,0,0,0,10,6,4.3,6.8
Lucknow,1636709400,11/12/2021 15:00,30.2,86.4,1,Sunny,//cdn.weatherapi.com/weather/64x64/day/113.png,1000,4.7,7.6,309,NW,1011,29.85,0,0,30,0,29.1,84.4,30.2,86.4,29.1,84.4,10.5,50.9,0,0,0,0,10,6,5.4,8.6
Lucknow,1636713000,11/12/2021 16:00,28.8,83.8,1,Sunny,//cdn.weatherapi.com/weather/64x64/day/113.png,1000,5,8,316,NW,1011,29.86,0,0,33,0,28.1,82.6,28.8,83.8,28.1,82.6,10.9,51.6,0,0,0,0,10,6,5.9,9.5
Lucknow,1636716600,11/12/2021 17:00,27.4,81.3,1,Sunny,//cdn.weatherapi.com/weather/64x64/day/113.png,1000,5.3,8.5,323,NW,1012,29.87,0,0,37,0,27.1,80.8,27.4,81.3,27.1,80.8,11.3,52.3,0,0,0,0,10,6,6.4,10.3
Lucknow,1636720200,11/12/2021 18:00,26,78.8,0,Clear,//cdn.weatherapi.com/weather/64x64/night/113.png,1000,5.6,9,330,NNW,1012,29.88,0,0,41,0,26.1,79,26,78.8,26.1,79,11.7,53.1,0,0,0,0,10,6,6.9,11.2
Lucknow,1636723800,11/12/2021 19:00,24.5,76.2,0,Clear,//cdn.weatherapi.com/weather/64x64/night/113.png,1000,4.7,7.6,335,NNW,1012,29.9,0,0,42,0,25.5,77.8,24.5,76.2,25.5,77.8,10.9,51.7,0,0,0,0,10,6,6.6,10.7
Lucknow,1636727400,11/12/2021 20:00,23.1,73.5,0,Clear,//cdn.weatherapi.com/weather/64x64/night/113.png,1000,3.8,6.1,340,NNW,1013,29.91,0,0,44,0,24.8,76.7,23.1,73.5,24.8,76.7,10.2,50.3,0,0,0,0,10,6,6.3,10.2
Lucknow,1636731000,11/12/2021 21:00,21.6,70.9,0,Clear,//cdn.weatherapi.com/weather/64x64/night/113.png,1000,2.9,4.7,345,NNW,1013,29.92,0,0,46,0,21.6,70.9,21.6,70.9,24.2,75.6,9.4,48.9,0,0,0,0,10,6,6,9.7
Lucknow,1636734600,11/12/2021 22:00,21.2,70.2,0,Clear,//cdn.weatherapi.com/weather/64x64/night/113.png,1000,3.1,4.9,332,NNW,1013,29.92,0,0,45,0,21.2,70.2,21.2,70.2,23,73.3,8.9,48.1,0,0,0,0,10,6,6.3,10.2
Lucknow,1636738200,11/12/2021 23:00,20.9,69.6,0,Clear,//cdn.weatherapi.com/weather/64x64/night/113.png,1000,3.2,5.2,319,NW,1013,29.91,0,0,45,0,20.9,69.6,20.9,69.6,21.7,71.1,8.5,47.2,0,0,0,0,10,6,6.6,10.7
Lucknow,1636741800,11/13/2021 0:00,20.5,68.9,0,Clear,//cdn.weatherapi.com/weather/64x64/night/113.png,1000,3.4,5.4,306,NW,1013,29.91,0,0,44,0,20.5,68.9,20.5,68.9,20.5,68.9,8,46.4,0,0,0,0,10,6,6.9,11.2
Lucknow,1636745400,11/13/2021 1:00,20,68.1,0,Clear,//cdn.weatherapi.com/weather/64x64/night/113.png,1000,3.3,5.3,310,NW,1013,29.9,0,0,46,0,20,68.1,20,68.1,20,68.1,8.1,46.5,0,0,0,0,10,6,6.8,10.9
Lucknow,1636749000,11/13/2021 2:00,19.6,67.2,0,Clear,//cdn.weatherapi.com/weather/64x64/night/113.png,1000,3.2,5.2,313,NW,1012,29.9,0,0,47,0,19.6,67.2,19.6,67.2,19.6,67.2,8.1,46.6,0,0,0,0,10,6,6.6,10.7
Lucknow,1636752600,11/13/2021 3:00,19.1,66.4,0,Clear,//cdn.weatherapi.com/weather/64x64/night/113.png,1000,3.1,5,316,NW,1012,29.89,0,0,49,0,19.1,66.4,19.1,66.4,19.1,66.4,8.2,46.8,0,0,0,0,10,6,6.5,10.4
Lucknow,1636756200,11/13/2021 4:00,18.7,65.7,0,Clear,//cdn.weatherapi.com/weather/64x64/night/113.png,1000,2.3,3.7,314,NW,1013,29.91,0,0,51,0,18.7,65.7,18.7,65.7,18.7,65.7,8.3,46.9,0,0,0,0,10,6,4.8,7.7
Lucknow,1636759800,11/13/2021 5:00,18.4,65.1,0,Clear,//cdn.weatherapi.com/weather/64x64/night/113.png,1000,1.5,2.4,312,NW,1013,29.92,0,0,52,0,18.4,65.1,18.4,65.1,18.4,65.1,8.4,47.1,0,0,0,0,10,6,3.1,4.9
Lucknow,1636763400,11/13/2021 6:00,18,64.4,0,Clear,//cdn.weatherapi.com/weather/64x64/night/113.png,1000,0.7,1.1,309,NW,1014,29.93,0,0,54,0,18,64.4,18,64.4,18,64.4,8.5,47.3,0,0,0,0,10,6,1.3,2.2
Lucknow,1636767000,11/13/2021 7:00,19.8,67.7,1,Sunny,//cdn.weatherapi.com/weather/64x64/day/113.png,1000,1.3,2.2,298,WNW,1014,29.95,0,0,49,0,19.8,67.7,19.8,67.7,20.2,68.4,8.8,47.8,0,0,0,0,10,6,1.9,3.1
Lucknow,1636770600,11/13/2021 8:00,21.7,71,1,Sunny,//cdn.weatherapi.com/weather/64x64/day/113.png,1000,2,3.2,287,WNW,1015,29.96,0,0,45,0,21.7,71,21.7,71,22.4,72.3,9.1,48.4,0,0,0,0,10,6,2.5,4.1
Lucknow,1636774200,11/13/2021 9:00,23.5,74.3,1,Sunny,//cdn.weatherapi.com/weather/64x64/day/113.png,1000,2.7,4.3,275,W,1015,29.98,0,0,41,0,24.6,76.3,23.5,74.3,24.6,76.3,9.4,48.9,0,0,0,0,10,6,3.1,5
Lucknow,1636777800,11/13/2021 10:00,25.7,78.3,1,Sunny,//cdn.weatherapi.com/weather/64x64/day/113.png,1000,3.7,6,284,WNW,1014,29.95,0,0,36,0,26,78.8,25.7,78.3,26,78.8,9.4,48.9,0,0,0,0,10,6,4.3,7
Lucknow,1636781400,11/13/2021 11:00,28,82.3,1,Sunny,//cdn.weatherapi.com/weather/64x64/day/113.png,1000,4.8,7.7,292,WNW,1013,29.92,0,0,32,0,27.4,81.3,28,82.3,27.4,81.3,9.3,48.8,0,0,0,0,10,6,5.5,8.9
Lucknow,1636785000,11/13/2021 12:00,30.2,86.4,1,Sunny,//cdn.weatherapi.com/weather/64x64/day/113.png,1000,5.8,9.4,301,WNW,1012,29.89,0,0,27,0,28.8,83.8,30.2,86.4,28.8,83.8,9.3,48.7,0,0,0,0,10,6,6.7,10.8
Lucknow,1636788600,11/13/2021 13:00,30.3,86.5,1,Sunny,//cdn.weatherapi.com/weather/64x64/day/113.png,1000,6.2,10,306,NW,1012,29.87,0,0,27,0,28.9,84,30.3,86.5,28.9,84,9.3,48.7,0,0,0,0,10,6,7.2,11.5
Lucknow,1636792200,11/13/2021 14:00,30.4,86.7,1,Sunny,//cdn.weatherapi.com/weather/64x64/day/113.png,1000,6.6,10.6,312,NW,1011,29.85,0,0,27,0,29,84.2,30.4,86.7,29,84.2,9.2,48.6,0,0,0,0,10,6,7.6,12.2
Lucknow,1636795800,11/13/2021 15:00,30.5,86.9,1,Sunny,//cdn.weatherapi.com/weather/64x64/day/113.png,1000,6.9,11.2,318,NW,1010,29.83,0,0,27,0,29.1,84.4,30.5,86.9,29.1,84.4,9.2,48.6,0,0,0,0,10,6,8.1,13
Lucknow,1636799400,11/13/2021 16:00,28.9,84.1,1,Sunny,//cdn.weatherapi.com/weather/64x64/day/113.png,1000,6,9.6,322,NW,1010,29.84,0,0,30,0,28,82.3,28.9,84.1,28,82.3,9.5,49,0,0,0,0,10,6,7.2,11.6
Lucknow,1636803000,11/13/2021 17:00,27.4,81.3,1,Sunny,//cdn.weatherapi.com/weather/64x64/day/113.png,1000,5,8,327,NNW,1011,29.84,0,0,34,0,26.8,80.3,27.4,81.3,26.8,80.3,9.7,49.5,0,0,0,0,10,6,6.4,10.3
Lucknow,1636806600,11/13/2021 18:00,25.8,78.4,0,Clear,//cdn.weatherapi.com/weather/64x64/night/113.png,1000,4,6.5,331,NNW,1011,29.85,0,0,37,0,25.7,78.3,25.8,78.4,25.7,78.3,10,50,0,0,0,0,10,6,5.6,9
Lucknow,1636810200,11/13/2021 19:00,24.3,75.7,0,Clear,//cdn.weatherapi.com/weather/64x64/night/113.png,1000,3.9,6.2,332,NNW,1011,29.86,0,0,38,0,25.1,77.2,24.3,75.7,25.1,77.2,9.1,48.4,0,0,0,0,10,6,6.3,10.1
Lucknow,1636813800,11/13/2021 20:00,22.7,72.9,0,Clear,//cdn.weatherapi.com/weather/64x64/night/113.png,1000,3.7,6,332,NNW,1012,29.87,0,0,39,0,24.5,76.1,22.7,72.9,24.5,76.1,8.2,46.8,0,0,0,0,10,6,6.9,11.2
Lucknow,1636817400,11/13/2021 21:00,21.2,70.2,0,Clear,//cdn.weatherapi.com/weather/64x64/night/113.png,1000,3.6,5.8,332,NNW,1012,29.88,0,0,41,0,21.2,70.2,21.2,70.2,23.9,75,7.3,45.1,0,0,0,0,10,6,7.6,12.2
Lucknow,1636821000,11/13/2021 22:00,20.8,69.4,0,Clear,//cdn.weatherapi.com/weather/64x64/night/113.png,1000,2.5,4.1,236,WSW,1012,29.89,0,0,41,0,20.8,69.4,20.8,69.4,22.6,72.6,7.2,45,0,0,0,0,10,6,5.4,8.6
Lucknow,1636824600,11/13/2021 23:00,20.3,68.6,0,Clear,//cdn.weatherapi.com/weather/64x64/night/113.png,1000,1.5,2.4,141,SE,1012,29.89,0,0,42,0,20.3,68.6,20.3,68.6,21.2,70.2,7.1,44.8,0,0,0,0,10,6,3.1,5
Lucknow,1636828200,11/14/2021 0:00,19.9,67.8,0,Clear,//cdn.weatherapi.com/weather/64x64/night/113.png,1000,0.4,0.7,45,NE,1012,29.89,0,0,43,0,19.9,67.8,19.9,67.8,19.9,67.8,7,44.6,0,0,0,0,10,6,0.9,1.4
Lucknow,1636831800,11/14/2021 1:00,19.5,67.1,0,Clear,//cdn.weatherapi.com/weather/64x64/night/113.png,1000,0.5,0.8,130,SE,1012,29.89,0,0,44,0,19.5,67.1,19.5,67.1,19.5,67.1,6.9,44.5,0,0,0,0,10,6,1,1.7
Lucknow,1636835400,11/14/2021 2:00,19.1,66.4,0,Clear,//cdn.weatherapi.com/weather/64x64/night/113.png,1000,0.6,1,215,SW,1012,29.88,0,0,45,0,19.1,66.4,19.1,66.4,19.1,66.4,6.9,44.4,0,0,0,0,10,6,1.2,1.9
Lucknow,1636839000,11/14/2021 3:00,18.7,65.7,0,Clear,//cdn.weatherapi.com/weather/64x64/night/113.png,1000,0.7,1.1,300,WNW,1012,29.88,0,0,46,0,18.7,65.7,18.7,65.7,18.7,65.7,6.8,44.2,0,0,0,0,10,6,1.3,2.2
Lucknow,1636842600,11/14/2021 4:00,18.4,65.1,0,Clear,//cdn.weatherapi.com/weather/64x64/night/113.png,1000,1,1.7,204,SSW,1012,29.9,0,0,47,0,18.4,65.1,18.4,65.1,18.4,65.1,6.8,44.3,0,0,0,0,10,6,2.2,3.5
Lucknow,1636846200,11/14/2021 5:00,18,64.5,0,Clear,//cdn.weatherapi.com/weather/64x64/night/113.png,1000,1.4,2.3,108,ESE,1013,29.91,0,0,48,0,18,64.5,18,64.5,18,64.5,6.9,44.4,0,0,0,0,10,6,3,4.8
Lucknow,1636849800,11/14/2021 6:00,17.7,63.9,0,Clear,//cdn.weatherapi.com/weather/64x64/night/113.png,1000,1.8,2.9,12,NNE,1014,29.93,0,0,49,0,17.7,63.9,17.7,63.9,17.7,63.9,6.9,44.4,0,0,0,0,10,6,3.8,6.1
Lucknow,1636853400,11/14/2021 7:00,19.6,67.2,1,Sunny,//cdn.weatherapi.com/weather/64x64/day/113.png,1000,1.5,2.4,27,NNE,1014,29.95,0,0,45,0,19.6,67.2,19.6,67.2,19.9,67.8,7.2,45,0,0,0,0,10,6,2.9,4.7
Lucknow,1636857000,11/14/2021 8:00,21.4,70.6,1,Sunny,//cdn.weatherapi.com/weather/64x64/day/113.png,1000,1.2,1.9,42,NE,1015,29.96,0,0,41,0,21.4,70.6,21.4,70.6,22.1,71.8,7.5,45.5,0,0,0,0,10,6,2,3.2
Lucknow,1636860600,11/14/2021 9:00,23.3,73.9,1,Sunny,//cdn.weatherapi.com/weather/64x64/day/113.png,1000,0.9,1.4,56,ENE,1015,29.98,0,0,37,0,24.3,75.7,23.3,73.9,24.3,75.7,7.8,46,0,0,0,0,10,6,1.1,1.8
Lucknow,1636864200,11/14/2021 10:00,25.6,78,1,Sunny,//cdn.weatherapi.com/weather/64x64/day/113.png,1000,1.2,1.9,128,SE,1014,29.95,0,0,32,0,25.6,78.1,25.6,78,25.6,78.1,7.5,45.5,0,0,0,0,10,6,1.4,2.3
Lucknow,1636867800,11/14/2021 11:00,27.8,82.1,1,Sunny,//cdn.weatherapi.com/weather/64x64/day/113.png,1000,1.5,2.4,200,SSW,1013,29.92,0,0,28,0,26.9,80.4,27.8,82.1,26.9,80.4,7.2,45,0,0,0,0,10,6,1.7,2.8
Lucknow,1636871400,11/14/2021 12:00,30.1,86.2,1,Sunny,//cdn.weatherapi.com/weather/64x64/day/113.png,1000,1.8,2.9,272,W,1012,29.9,0,0,23,0,28.2,82.8,30.1,86.2,28.2,82.8,6.9,44.4,0,0,0,0,10,6,2,3.2
Lucknow,1636875000,11/14/2021 13:00,30.2,86.3,1,Sunny,//cdn.weatherapi.com/weather/64x64/day/113.png,1000,2.7,4.3,281,WNW,1012,29.87,0,0,23,0,28.2,82.8,30.2,86.3,28.2,82.8,6.5,43.8,0,0,0,0,10,6,3.1,4.9
Lucknow,1636878600,11/14/2021 14:00,30.2,86.4,1,Sunny,//cdn.weatherapi.com/weather/64x64/day/113.png,1000,3.6,5.8,290,WNW,1011,29.85,0,0,22,0,28.2,82.8,30.2,86.4,28.2,82.8,6.2,43.1,0,0,0,0,10,6,4.1,6.6
Lucknow,1636882200,11/14/2021 15:00,30.3,86.5,1,Sunny,//cdn.weatherapi.com/weather/64x64/day/113.png,1000,4.5,7.2,300,WNW,1010,29.83,0,0,21,0,28.2,82.8,30.3,86.5,28.2,82.8,5.8,42.4,0,0,0,0,10,6,5.1,8.3
Lucknow,1636885800,11/14/2021 16:00,28.7,83.6,1,Sunny,//cdn.weatherapi.com/weather/64x64/day/113.png,1000,4.4,7.1,307,NW,1010,29.83,0,0,25,0,27.1,80.8,28.7,83.6,27.1,80.8,6.2,43.2,0,0,0,0,10,6,5.4,8.6
Lucknow,1636889400,11/14/2021 17:00,27,80.7,1,Sunny,//cdn.weatherapi.com/weather/64x64/day/113.png,1000,4.3,7,315,NW,1010,29.84,0,0,28,0,26.1,78.9,27,80.7,26.1,78.9,6.6,43.9,0,0,0,0,10,6,5.6,9
Lucknow,1636893000,11/14/2021 18:00,25.4,77.7,0,Clear,//cdn.weatherapi.com/weather/64x64/night/113.png,1000,4.3,6.8,322,NW,1011,29.84,0,0,31,0,25,77,25.4,77.7,25,77,7,44.6,0,0,0,0,10,6,5.8,9.4
Lucknow,1636896600,11/14/2021 19:00,23.9,75,0,Clear,//cdn.weatherapi.com/weather/64x64/night/113.png,1000,4.1,6.6,323,NW,1011,29.85,0,0,32,0,23.6,74.5,23.9,75,23.6,74.5,6.3,43.3,0,0,0,0,10,6,6.6,10.6
Lucknow,1636900200,11/14/2021 20:00,22.4,72.3,0,Clear,//cdn.weatherapi.com/weather/64x64/night/113.png,1000,4,6.4,323,NW,1011,29.86,0,0,34,0,22.3,72.1,22.4,72.3,22.3,72.1,5.5,42,0,0,0,0,10,6,7.3,11.8
Lucknow,1636903800,11/14/2021 21:00,20.9,69.6,0,Clear,//cdn.weatherapi.com/weather/64x64/night/113.png,1000,3.8,6.1,323,NW,1012,29.88,0,0,35,0,20.9,69.6,20.9,69.6,20.9,69.6,4.8,40.6,0,0,0,0,10,6,8.1,13
Lucknow,1636907400,11/14/2021 22:00,20.4,68.7,0,Clear,//cdn.weatherapi.com/weather/64x64/night/113.png,1000,3.7,5.9,320,NW,1012,29.87,0,0,38,0,20.4,68.7,20.4,68.7,20.4,68.7,5.6,42,0,0,0,0,10,6,7.7,12.4
Lucknow,1636911000,11/14/2021 23:00,19.9,67.8,0,Clear,//cdn.weatherapi.com/weather/64x64/night/113.png,1000,3.5,5.6,317,NW,1012,29.87,0,0,41,0,19.9,67.8,19.9,67.8,19.9,67.8,6.3,43.4,0,0,0,0,10,6,7.3,11.8
Lucknow,1636914600,11/15/2021 0:00,19.4,66.9,0,Clear,//cdn.weatherapi.com/weather/64x64/night/113.png,1000,3.4,5.4,314,NW,1012,29.87,0,0,45,0,19.4,66.9,19.4,66.9,19.4,66.9,7.1,44.8,0,0,0,0,10,6,6.9,11.2
Lucknow,1636918200,11/15/2021 1:00,19.1,66.3,0,Clear,//cdn.weatherapi.com/weather/64x64/night/113.png,1000,2.5,4.1,329,NNW,1011,29.87,0,0,45,0,19.1,66.3,19.1,66.3,19.1,66.3,7.1,44.7,0,0,0,0,10,6,5.2,8.4
Lucknow,1636921800,11/15/2021 2:00,18.7,65.7,0,Clear,//cdn.weatherapi.com/weather/64x64/night/113.png,1000,1.7,2.8,343,NNW,1011,29.86,0,0,46,0,18.7,65.7,18.7,65.7,18.7,65.7,7,44.7,0,0,0,0,10,6,3.5,5.6
Lucknow,1636925400,11/15/2021 3:00,18.4,65.1,0,Clear,//cdn.weatherapi.com/weather/64x64/night/113.png,1000,0.9,1.4,358,N,1011,29.85,0,0,47,0,18.4,65.1,18.4,65.1,18.4,65.1,7,44.6,0,0,0,0,10,6,1.8,2.9
Lucknow,1636929000,11/15/2021 4:00,18.1,64.5,0,Clear,//cdn.weatherapi.com/weather/64x64/night/113.png,1000,0.7,1.2,241,WSW,1011,29.87,0,0,48,0,18.1,64.5,18.1,64.5,18.1,64.5,7,44.5,0,0,0,0,10,6,1.5,2.4
Lucknow,1636932600,11/15/2021 5:00,17.7,63.9,0,Clear,//cdn.weatherapi.com/weather/64x64/night/113.png,1000,0.6,1,124,SE,1012,29.88,0,0,49,0,17.7,63.9,17.7,63.9,17.7,63.9,6.9,44.5,0,0,0,0,10,6,1.2,1.9
Lucknow,1636936200,11/15/2021 6:00,17.4,63.3,0,Clear,//cdn.weatherapi.com/weather/64x64/night/113.png,1000,0.4,0.7,7,N,1012,29.89,0,0,50,0,17.4,63.3,17.4,63.3,17.4,63.3,6.9,44.4,0,0,0,0,10,6,0.9,1.4
Lucknow,1636939800,11/15/2021 7:00,19.2,66.6,1,Sunny,//cdn.weatherapi.com/weather/64x64/day/113.png,1000,0.3,0.5,118,ESE,1013,29.91,0,0,46,0,19.2,66.6,19.2,66.6,19.6,67.3,7.2,44.9,0,0,0,0,10,6,0.6,1
Lucknow,1636943400,11/15/2021 8:00,21,69.8,1,Sunny,//cdn.weatherapi.com/weather/64x64/day/113.png,1000,0.1,0.2,228,SW,1013,29.92,0,0,42,0,21,69.8,21,69.8,21.9,71.4,7.4,45.4,0,0,0,0,10,6,0.3,0.5
Lucknow,1636947000,11/15/2021 9:00,22.8,73,1,Sunny,//cdn.weatherapi.com/weather/64x64/day/113.png,1000,0,0,339,NNW,1014,29.93,0,0,38,0,24.1,75.4,22.8,73,24.1,75.4,7.7,45.9,0,0,0,0,10,6,0,0
Lucknow,1636950600,11/15/2021 10:00,24.9,76.9,1,Sunny,//cdn.weatherapi.com/weather/64x64/day/113.png,1000,1,1.6,329,NNW,1013,29.91,0,0,34,0,25.3,77.6,24.9,76.9,25.3,77.6,7.9,46.2,0,0,0,0,10,6,1.1,1.8
Lucknow,1636954200,11/15/2021 11:00,27.1,80.7,1,Sunny,//cdn.weatherapi.com/weather/64x64/day/113.png,1000,1.9,3.1,319,NW,1012,29.89,0,0,30,0,26.6,79.8,27.1,80.7,26.6,79.8,8,46.5,0,0,0,0,10,6,2.2,3.6
Lucknow,1636957800,11/15/2021 12:00,29.2,84.6,1,Sunny,//cdn.weatherapi.com/weather/64x64/day/113.png,1000,2.9,4.7,309,NW,1011,29.86,0,0,27,0,27.8,82,29.2,84.6,27.8,82,8.2,46.8,0,0,0,0,10,6,3.4,5.4
Lucknow,1636961400,11/15/2021 13:00,29.2,84.6,1,Sunny,//cdn.weatherapi.com/weather/64x64/day/113.png,1000,4,6.4,314,NW,1010,29.84,0,0,27,0,27.8,82,29.2,84.6,27.8,82,8.2,46.8,0,0,0,0,10,6,4.5,7.3
Lucknow,1636965000,11/15/2021 14:00,29.3,84.7,1,Sunny,//cdn.weatherapi.com/weather/64x64/day/113.png,1000,5,8,320,NW,1010,29.82,0,0,27,0,27.8,82,29.3,84.7,27.8,82,8.2,46.8,0,0,0,0,10,6,5.7,9.2
Lucknow,1636968600,11/15/2021 15:00,29.3,84.7,1,Sunny,//cdn.weatherapi.com/weather/64x64/day/113.png,1000,6,9.7,325,NW,1009,29.8,0,0,27,0,27.8,82,29.3,84.7,27.8,82,8.2,46.8,0,0,0,0,10,6,6.9,11.2
Lucknow,1636972200,11/15/2021 16:00,27.8,82.1,1,Sunny,//cdn.weatherapi.com/weather/64x64/day/113.png,1000,6,9.6,326,NNW,1009,29.81,0,0,30,0,26.9,80.4,27.8,82.1,26.9,80.4,8.5,47.4,0,0,0,0,10,6,7.2,11.5
Lucknow,1636975800,11/15/2021 17:00,26.4,79.5,1,Sunny,//cdn.weatherapi.com/weather/64x64/day/113.png,1000,5.9,9.5,327,NNW,1010,29.82,0,0,33,0,26,78.8,26.4,79.5,26,78.8,8.9,48,0,0,0,0,10,6,7.4,11.9
Lucknow,1636979400,11/15/2021 18:00,24.9,76.8,0,Clear,//cdn.weatherapi.com/weather/64x64/night/113.png,1000,5.8,9.4,328,NNW,1010,29.83,0,0,37,0,25.1,77.2,24.9,76.8,25.1,77.2,9.2,48.6,0,0,0,0,10,6,7.6,12.2
Lucknow,1636983000,11/15/2021 19:00,23.4,74.1,0,Clear,//cdn.weatherapi.com/weather/64x64/night/113.png,1000,5.2,8.4,328,NNW,1010,29.84,0,0,37,0,23.5,74.4,23.4,74.1,23.5,74.4,7.9,46.2,0,0,0,0,10,6,7.9,12.7
Lucknow,1636986600,11/15/2021 20:00,21.9,71.4,0,Clear,//cdn.weatherapi.com/weather/64x64/night/113.png,1000,4.6,7.4,328,NNW,1011,29.85,0,0,37,0,21.9,71.4,21.9,71.4,22,71.5,6.6,43.9,0,0,0,0,10,6,8.2,13.2
Lucknow,1636990200,11/15/2021 21:00,20.4,68.7,0,Clear,//cdn.weatherapi.com/weather/64x64/night/113.png,1000,4,6.5,329,NNW,1011,29.87,0,0,37,0,20.4,68.7,20.4,68.7,20.4,68.7,5.3,41.5,0,0,0,0,10,6,8.5,13.7
Lucknow,1636993800,11/15/2021 22:00,20,68,0,Clear,//cdn.weatherapi.com/weather/64x64/night/113.png,1000,3.8,6.1,334,NNW,1012,29.87,0,0,41,0,20,68,20,68,20,68,6.3,43.4,0,0,0,0,10,6,8,12.8
Lucknow,1636997400,11/15/2021 23:00,19.6,67.3,0,Clear,//cdn.weatherapi.com/weather/64x64/night/113.png,1000,3.6,5.8,340,NNW,1012,29.87,0,0,45,0,19.6,67.3,19.6,67.3,19.6,67.3,7.4,45.3,0,0,0,0,10,6,7.5,12
Lucknow,1637001000,11/16/2021 0:00,19.2,66.6,0,Clear,//cdn.weatherapi.com/weather/64x64/night/113.png,1000,3.4,5.4,346,NNW,1012,29.88,0,0,50,0,19.2,66.6,19.2,66.6,19.2,66.6,8.4,47.1,0,0,0,0,10,6,6.9,11.2
Lucknow,1637004600,11/16/2021 1:00,18.9,66,0,Clear,//cdn.weatherapi.com/weather/64x64/night/113.png,1000,3.3,5.3,235,SW,1012,29.88,0,0,51,0,18.9,66,18.9,66,18.9,66,8.6,47.4,0,0,0,0,10,6,6.8,10.9
Lucknow,1637008200,11/16/2021 2:00,18.5,65.4,0,Clear,//cdn.weatherapi.com/weather/64x64/night/113.png,1000,3.2,5.2,124,SE,1012,29.87,0,0,53,0,18.5,65.4,18.5,65.4,18.5,65.4,8.7,47.7,0,0,0,0,10,6,6.6,10.7
Lucknow,1637011800,11/16/2021 3:00,18.2,64.8,0,Clear,//cdn.weatherapi.com/weather/64x64/night/113.png,1000,3.1,5,14,NNE,1012,29.87,0,0,55,0,18.2,64.8,18.2,64.8,18.2,64.8,8.9,48,0,0,0,0,10,6,6.5,10.4
Lucknow,1637015400,11/16/2021 4:00,17.9,64.2,0,Clear,//cdn.weatherapi.com/weather/64x64/night/113.png,1000,3,4.8,16,NNE,1012,29.89,0,0,56,0,17.9,64.2,17.9,64.2,17.9,64.2,9,48.1,0,0,0,0,10,6,6.2,10
Lucknow,1637019000,11/16/2021 5:00,17.5,63.6,0,Clear,//cdn.weatherapi.com/weather/64x64/night/113.png,1000,2.8,4.6,18,NNE,1013,29.9,0,0,57,0,17.5,63.6,17.5,63.6,17.5,63.6,9,48.3,0,0,0,0,10,6,5.9,9.5
Lucknow,1637022600,11/16/2021 6:00,17.2,63,0,Clear,//cdn.weatherapi.com/weather/64x64/night/113.png,1000,2.7,4.3,20,NNE,1013,29.91,0,0,59,0,17.2,63,17.2,63,17.2,63,9.1,48.4,0,0,0,0,10,6,5.6,9
Lucknow,1637026200,11/16/2021 7:00,18.9,66.1,1,Sunny,//cdn.weatherapi.com/weather/64x64/day/113.png,1000,2.5,4,27,NNE,1014,29.93,0,0,54,0,18.9,66.1,18.9,66.1,19.6,67.3,9.4,48.9,0,0,0,0,10,6,4.5,7.3
Lucknow,1637029800,11/16/2021 8:00,20.7,69.2,1,Sunny,//cdn.weatherapi.com/weather/64x64/day/113.png,1000,2.2,3.6,35,NE,1014,29.96,0,0,50,0,20.7,69.2,20.7,69.2,22,71.6,9.7,49.5,0,0,0,0,10,6,3.5,5.6
Lucknow,1637033400,11/16/2021 9:00,22.4,72.3,1,Sunny,//cdn.weatherapi.com/weather/64x64/day/113.png,1000,2,3.2,42,NE,1015,29.98,0,0,45,0,24.4,75.9,22.4,72.3,24.4,75.9,10,50,0,0,0,0,10,6,2.5,4
Lucknow,1637037000,11/16/2021 10:00,24.6,76.2,1,Sunny,//cdn.weatherapi.com/weather/64x64/day/113.png,1000,2,3.2,146,SSE,1014,29.95,0,0,41,0,25.6,78,24.6,76.2,25.6,78,10.1,50.1,0,0,0,0,10,6,2.4,3.8
Lucknow,1637040600,11/16/2021 11:00,26.7,80.1,1,Sunny,//cdn.weatherapi.com/weather/64x64/day/113.png,1000,2,3.2,250,WSW,1014,29.93,0,0,36,0,26.7,80.1,26.7,80.1,26.7,80.1,10.1,50.2,0,0,0,0,10,6,2.3,3.7
Lucknow,1637044200,11/16/2021 12:00,28.9,84,1,Sunny,//cdn.weatherapi.com/weather/64x64/day/113.png,1000,2,3.2,354,N,1013,29.91,0,0,31,0,27.9,82.2,28.9,84,27.9,82.2,10.2,50.4,0,0,0,0,10,6,2.2,3.6
Lucknow,1637047800,11/16/2021 13:00,29,84.1,1,Sunny,//cdn.weatherapi.com/weather/64x64/day/113.png,1000,2.7,4.3,350,N,1012,29.89,0,0,30,0,27.9,82.2,29,84.1,27.9,82.2,9.9,49.8,0,0,0,0,10,6,3.1,4.9
Lucknow,1637051400,11/16/2021 14:00,29,84.3,1,Sunny,//cdn.weatherapi.com/weather/64x64/day/113.png,1000,3.4,5.4,345,NNW,1011,29.87,0,0,30,0,27.9,82.2,29,84.3,27.9,82.2,9.5,49.2,0,0,0,0,10,6,3.9,6.2
Lucknow,1637055000,11/16/2021 15:00,29.1,84.4,1,Sunny,//cdn.weatherapi.com/weather/64x64/day/113.png,1000,4,6.5,341,NNW,1011,29.85,0,0,29,0,27.9,82.2,29.1,84.4,27.9,82.2,9.2,48.6,0,0,0,0,10,6,4.7,7.6
Lucknow,1637058600,11/16/2021 16:00,27.7,81.9,1,Sunny,//cdn.weatherapi.com/weather/64x64/day/113.png,1000,4.2,6.7,342,NNW,1011,29.86,0,0,32,0,27,80.7,27.7,81.9,27,80.7,9.5,49.1,0,0,0,0,10,6,5,8
Lucknow,1637062200,11/16/2021 17:00,26.3,79.3,1,Sunny,//cdn.weatherapi.com/weather/64x64/day/113.png,1000,4.3,7,343,NNW,1011,29.87,0,0,36,0,26.2,79.1,26.3,79.3,26.2,79.1,9.8,49.6,0,0,0,0,10,6,5.3,8.5
Lucknow,1637065800,11/16/2021 18:00,24.9,76.8,0,Clear,//cdn.weatherapi.com/weather/64x64/night/113.png,1000,4.5,7.2,344,NNW,1012,29.88,0,0,39,0,25.3,77.5,24.9,76.8,25.3,77.5,10.1,50.2,0,0,0,0,10,6,5.6,9
Lucknow,1637069400,11/16/2021 19:00,23.5,74.2,0,Clear,//cdn.weatherapi.com/weather/64x64/night/113.png,1000,4,6.4,342,NNW,1012,29.89,0,0,41,0,23.7,74.7,23.5,74.2,23.7,74.7,9.3,48.8,0,0,0,0,10,6,5.7,9.2
Lucknow,1637073000,11/16/2021 20:00,22,71.7,0,Clear,//cdn.weatherapi.com/weather/64x64/night/113.png,1000,3.4,5.5,341,NNW,1013,29.91,0,0,42,0,22.2,71.9,22,71.7,22.2,71.9,8.6,47.4,0,0,0,0,10,6,5.9,9.5
Lucknow,1637076600,11/16/2021 21:00,20.6,69.1,0,Clear,//cdn.weatherapi.com/weather/64x64/night/113.png,1000,2.9,4.7,339,NNW,1014,29.93,0,0,43,0,20.6,69.1,20.6,69.1,20.6,69.1,7.8,46,0,0,0,0,10,6,6,9.7
Lucknow,1637080200,11/16/2021 22:00,20.3,68.5,0,Clear,//cdn.weatherapi.com/weather/64x64/night/113.png,1000,3.1,4.9,232,SW,1013,29.93,0,0,44,0,20.3,68.5,20.3,68.5,20.3,68.5,7.7,45.8,0,0,0,0,10,6,6.3,10.2
Lucknow,1637083800,11/16/2021 23:00,19.9,67.9,0,Clear,//cdn.weatherapi.com/weather/64x64/night/113.png,1000,3.2,5.2,126,SE,1013,29.93,0,0,45,0,19.9,67.9,19.9,67.9,19.9,67.9,7.5,45.6,0,0,0,0,10,6,6.6,10.7
Lucknow,1637087400,11/17/2021 0:00,19.6,67.3,0,Clear,//cdn.weatherapi.com/weather/64x64/night/113.png,1000,3.4,5.4,19,NNE,1013,29.93,0,0,45,0,19.6,67.3,19.6,67.3,19.6,67.3,7.4,45.3,0,0,0,0,10,6,6.9,11.2
Lucknow,1637091000,11/17/2021 1:00,19.2,66.6,0,Clear,//cdn.weatherapi.com/weather/64x64/night/113.png,1000,3.8,6.1,26,NNE,1013,29.92,0,0,47,0,19.2,66.6,19.2,66.6,19.2,66.6,7.7,45.8,0,0,0,0,10,6,7.9,12.7
Lucknow,1637094600,11/17/2021 2:00,18.8,65.8,0,Clear,//cdn.weatherapi.com/weather/64x64/night/113.png,1000,4.3,6.8,33,NNE,1013,29.91,0,0,49,0,18.8,65.8,18.8,65.8,18.8,65.8,7.9,46.3,0,0,0,0,10,6,8.9,14.3
Lucknow,1637098200,11/17/2021 3:00,18.4,65.1,0,Clear,//cdn.weatherapi.com/weather/64x64/night/113.png,1000,4.7,7.6,39,NE,1013,29.91,0,0,51,0,18.4,65.1,18.4,65.1,18.4,65.1,8.2,46.8,0,0,0,0,10,6,9.8,15.8
Lucknow,1637101800,11/17/2021 4:00,18.1,64.5,0,Clear,//cdn.weatherapi.com/weather/64x64/night/113.png,1000,4.2,6.7,52,NE,1013,29.93,0,0,53,0,18.1,64.5,18.1,64.5,18.1,64.5,8.5,47.2,0,0,0,0,10,6,8.7,14
Lucknow,1637105400,11/17/2021 5:00,17.7,63.9,0,Clear,//cdn.weatherapi.com/weather/64x64/night/113.png,1000,3.7,5.9,64,ENE,1014,29.94,0,0,55,0,17.7,63.9,17.7,63.9,17.7,63.9,8.7,47.7,0,0,0,0,10,6,7.6,12.2
Lucknow,1637109000,11/17/2021 6:00,17.4,63.3,0,Clear,//cdn.weatherapi.com/weather/64x64/night/113.png,1000,3.1,5,76,ENE,1015,29.96,0,0,58,0,17.4,63.3,17.4,63.3,17.4,63.3,9,48.2,0,0,0,0,10,6,6.5,10.4
Lucknow,1637112600,11/17/2021 7:00,19.2,66.5,1,Sunny,//cdn.weatherapi.com/weather/64x64/day/113.png,1000,3.6,5.8,74,ENE,1015,29.99,0,0,53,0,19.2,66.5,19.2,66.5,19.7,67.5,9.4,48.9,0,0,0,0,10,6,6.1,9.8
Lucknow,1637116200,11/17/2021 8:00,20.9,69.7,1,Sunny,//cdn.weatherapi.com/weather/64x64/day/113.png,1000,4,6.5,73,ENE,1016,30.01,0,0,49,0,20.9,69.7,20.9,69.7,22.1,71.7,9.8,49.6,0,0,0,0,10,6,5.7,9.2
Lucknow,1637119800,11/17/2021 9:00,22.7,72.9,1,Sunny,//cdn.weatherapi.com/weather/64x64/day/113.png,1000,4.5,7.2,71,ENE,1017,30.04,0,0,45,0,24.4,75.9,22.7,72.9,24.4,75.9,10.2,50.4,0,0,0,0,10,6,5.4,8.6
Lucknow,1637123400,11/17/2021 10:00,25,76.9,1,Sunny,//cdn.weatherapi.com/weather/64x64/day/113.png,1000,3.7,6,63,ENE,1017,30.02,0,0,40,0,25.7,78.3,25,76.9,25.7,78.3,10.2,50.4,0,0,0,0,10,6,4.4,7.1
Lucknow,1637127000,11/17/2021 11:00,27.2,81,1,Sunny,//cdn.weatherapi.com/weather/64x64/day/113.png,1000,3,4.8,55,NE,1016,30,0,0,35,0,27.1,80.7,27.2,81,27.1,80.7,10.3,50.5,0,0,0,0,10,6,3.4,5.5
Lucknow,1637130600,11/17/2021 12:00,29.5,85.1,1,Sunny,//cdn.weatherapi.com/weather/64x64/day/113.png,1000,2.2,3.6,47,NE,1015,29.98,0,0,30,0,28.4,83.1,29.5,85.1,28.4,83.1,10.3,50.5,0,0,0,0,10,6,2.5,4
Lucknow,1637134200,11/17/2021 13:00,29.6,85.3,1,Sunny,//cdn.weatherapi.com/weather/64x64/day/113.png,1000,2.6,4.2,33,NNE,1014,29.95,0,0,30,0,28.4,83.2,29.6,85.3,28.4,83.2,10,50.1,0,0,0,0,10,6,2.9,4.7
Lucknow,1637137800,11/17/2021 14:00,29.7,85.5,1,Sunny,//cdn.weatherapi.com/weather/64x64/day/113.png,1000,3,4.8,19,NNE,1013,29.93,0,0,29,0,28.5,83.2,29.7,85.5,28.5,83.2,9.8,49.6,0,0,0,0,10,6,3.4,5.4
Lucknow,1637141400,11/17/2021 15:00,29.8,85.6,1,Sunny,//cdn.weatherapi.com/weather/64x64/day/113.png,1000,3.4,5.4,6,N,1013,29.9,0,0,28,0,28.5,83.3,29.8,85.6,28.5,83.3,9.5,49.1,0,0,0,0,10,6,3.8,6.1
Lucknow,1637145000,11/17/2021 16:00,28.3,83,1,Sunny,//cdn.weatherapi.com/weather/64x64/day/113.png,1000,3.4,5.5,4,N,1013,29.91,0,0,32,0,27.5,81.6,28.3,83,27.5,81.6,9.9,49.9,0,0,0,0,10,6,4,6.5
Lucknow,1637148600,11/17/2021 17:00,26.9,80.4,1,Sunny,//cdn.weatherapi.com/weather/64x64/day/113.png,1000,3.5,5.6,2,N,1013,29.92,0,0,36,0,26.6,79.8,26.9,80.4,26.6,79.8,10.4,50.7,0,0,0,0,10,6,4.3,6.8
Lucknow,1637152200,11/17/2021 18:00,25.4,77.7,0,Clear,//cdn.weatherapi.com/weather/64x64/night/113.png,1000,3.6,5.8,0,N,1013,29.92,0,0,40,0,25.6,78.1,25.4,77.7,25.6,78.1,10.8,51.4,0,0,0,0,10,6,4.5,7.2
Lucknow,1637155800,11/17/2021 19:00,23.9,75,0,Clear,//cdn.weatherapi.com/weather/64x64/night/113.png,1000,3.4,5.5,3,N,1014,29.93,0,0,42,0,24,75.2,23.9,75,24,75.2,10.1,50.2,0,0,0,0,10,6,5.1,8.3
Lucknow,1637159400,11/17/2021 20:00,22.3,72.2,0,Clear,//cdn.weatherapi.com/weather/64x64/night/113.png,1000,3.3,5.3,5,N,1014,29.95,0,0,44,0,22.4,72.3,22.3,72.2,22.4,72.3,9.4,48.9,0,0,0,0,10,6,5.8,9.4
Lucknow,1637163000,11/17/2021 21:00,20.8,69.4,0,Clear,//cdn.weatherapi.com/weather/64x64/night/113.png,1000,3.1,5,8,N,1015,29.96,0,0,46,0,20.8,69.4,20.8,69.4,20.8,69.4,8.7,47.7,0,0,0,0,10,6,6.5,10.4
Lucknow,1637166600,11/17/2021 22:00,20.3,68.6,0,Clear,//cdn.weatherapi.com/weather/64x64/night/113.png,1000,2.8,4.4,19,NNE,1014,29.95,0,0,45,11,20.3,68.6,20.3,68.6,20.3,68.6,8,46.5,0,0,0,0,10,6,5.7,9.2
Lucknow,1637170200,11/17/2021 23:00,19.9,67.8,0,Partly cloudy,//cdn.weatherapi.com/weather/64x64/night/116.png,1003,2.4,3.8,30,NNE,1014,29.94,0,0,44,22,19.9,67.8,19.9,67.8,19.9,67.8,7.4,45.3,0,1,0,0,10,6,5,8
Lucknow,1637173800,11/18/2021 0:00,19.4,66.9,0,Partly cloudy,//cdn.weatherapi.com/weather/64x64/night/116.png,1003,2,3.2,41,NE,1014,29.93,0,0,44,33,19.4,66.9,19.4,66.9,19.4,66.9,6.7,44.1,0,0,0,0,10,6,4.3,6.8
Lucknow,1637177400,11/18/2021 1:00,19.1,66.4,0,Partly cloudy,//cdn.weatherapi.com/weather/64x64/night/116.png,1003,2.9,4.7,31,NNE,1013,29.93,0,0,45,55,19.1,66.4,19.1,66.4,19.1,66.4,7,44.6,0,1,0,0,10,6,6.1,9.8
Lucknow,1637181000,11/18/2021 2:00,18.9,66,0,Overcast,//cdn.weatherapi.com/weather/64x64/night/122.png,1009,3.8,6.1,20,NNE,1013,29.92,0,0,47,77,18.9,66,18.9,66,18.9,66,7.3,45.1,0,3,0,0,10,6,8,12.8
Lucknow,1637184600,11/18/2021 3:00,18.6,65.5,0,Overcast,//cdn.weatherapi.com/weather/64x64/night/122.png,1009,4.7,7.6,9,N,1013,29.92,0,0,49,100,18.6,65.5,18.6,65.5,18.6,65.5,7.6,45.7,0,0,0,0,10,6,9.8,15.8
Lucknow,1637188200,11/18/2021 4:00,18.2,64.8,0,Overcast,//cdn.weatherapi.com/weather/64x64/night/122.png,1009,4.3,7,15,NNE,1014,29.93,0,0,53,71,18.2,64.8,18.2,64.8,18.2,64.8,8.5,47.3,0,3,0,0,10,6,9,14.5
Lucknow,1637191800,11/18/2021 5:00,17.9,64.2,0,Clear,//cdn.weatherapi.com/weather/64x64/night/113.png,1000,4,6.4,21,NNE,1014,29.95,0,0,58,42,17.9,64.2,17.9,64.2,17.9,64.2,9.4,48.9,0,0,0,0,10,6,8.2,13.2
Lucknow,1637195400,11/18/2021 6:00,17.5,63.5,0,Clear,//cdn.weatherapi.com/weather/64x64/night/113.png,1000,3.6,5.8,27,NNE,1015,29.96,0,0,63,13,17.5,63.5,17.5,63.5,17.5,63.5,10.3,50.5,0,0,0,0,10,6,7.4,11.9
Lucknow,1637199000,11/18/2021 7:00,19.1,66.4,1,Sunny,//cdn.weatherapi.com/weather/64x64/day/113.png,1000,3.5,5.6,26,NNE,1015,29.97,0,0,59,17,19.1,66.4,19.1,66.4,19.9,67.8,10.9,51.6,0,0,0,0,10,6,6.3,10.1
Lucknow,1637202600,11/18/2021 8:00,20.8,69.4,1,Partly cloudy,//cdn.weatherapi.com/weather/64x64/day/116.png,1003,3.4,5.5,25,NNE,1015,29.98,0,0,56,22,20.8,69.4,20.8,69.4,22.2,72,11.5,52.7,0,1,0,0,10,6,5.1,8.3
Lucknow,1637206200,11/18/2021 9:00,22.4,72.3,1,Partly cloudy,//cdn.weatherapi.com/weather/64x64/day/116.png,1003,3.4,5.4,23,NNE,1016,29.99,0,0,52,26,24.6,76.3,22.4,72.3,24.6,76.3,12.1,53.8,0,0,0,0,10,6,4,6.5
Lucknow,1637209800,11/18/2021 10:00,23.8,74.9,1,Partly cloudy,//cdn.weatherapi.com/weather/64x64/day/116.png,1003,3.5,5.6,134,SE,1015,29.96,0,0,47,40,25.2,77.4,23.8,74.9,25.2,77.4,11.7,53.1,0,1,0,0,10,6,4.2,6.7
Lucknow,1637213400,11/18/2021 11:00,25.3,77.5,1,Cloudy,//cdn.weatherapi.com/weather/64x64/day/119.png,1006,3.7,5.9,245,WSW,1013,29.92,0,0,42,53,25.8,78.4,25.3,77.5,25.8,78.4,11.4,52.5,0,2,0,0,10,6,4.3,7
Lucknow,1637217000,11/18/2021 12:00,26.7,80.1,1,Cloudy,//cdn.weatherapi.com/weather/64x64/day/119.png,1006,3.8,6.1,357,N,1012,29.89,0,0,38,67,26.4,79.5,26.7,80.1,26.4,79.5,11,51.8,0,0,0,0,10,6,4.5,7.2
Lucknow,1637220600,11/18/2021 13:00,27.4,81.4,1,Cloudy,//cdn.weatherapi.com/weather/64x64/day/119.png,1006,3.9,6.2,350,N,1011,29.87,0,0,37,47,27.1,80.8,27.4,81.4,27.1,80.8,11.6,52.8,0,2,0,0,10,6,4.5,7.3
Lucknow,1637224200,11/18/2021 14:00,28.2,82.7,1,Sunny,//cdn.weatherapi.com/weather/64x64/day/113.png,1000,4,6.4,343,NNW,1011,29.84,0,0,37,27,27.8,82,28.2,82.7,27.8,82,12.1,53.8,0,0,0,0,10,6,4.6,7.4
Lucknow,1637227800,11/18/2021 15:00,28.9,84,1,Sunny,//cdn.weatherapi.com/weather/64x64/day/113.png,1000,4,6.5,336,NNW,1010,29.82,0,0,37,7,28.5,83.3,28.9,84,28.5,83.3,12.7,54.9,0,0,0,0,10,6,4.7,7.6
Lucknow,1637231400,11/18/2021 16:00,27.4,81.4,1,Sunny,//cdn.weatherapi.com/weather/64x64/day/113.png,1000,4.3,6.8,340,NNW,1010,29.83,0,0,39,8,27.4,81.4,27.4,81.4,27.4,81.4,12.3,54.2,0,0,0,0,10,6,5.4,8.6
Lucknow,1637235000,11/18/2021 17:00,26,78.7,1,Sunny,//cdn.weatherapi.com/weather/64x64/day/113.png,1000,4.5,7.2,343,NNW,1011,29.84,0,0,42,8,26.4,79.5,26,78.7,26.4,79.5,12,53.5,0,0,0,0,10,6,6,9.7
Lucknow,1637238600,11/18/2021 18:00,24.5,76.1,0,Clear,//cdn.weatherapi.com/weather/64x64/night/113.png,1000,4.7,7.6,346,NNW,1011,29.85,0,0,45,8,25.3,77.5,24.5,76.1,25.3,77.5,11.6,52.9,0,0,0,0,10,6,6.7,10.8
Lucknow,1637242200,11/18/2021 19:00,23.5,74.2,0,Clear,//cdn.weatherapi.com/weather/64x64/night/113.png,1000,5,8,346,NNW,1011,29.87,0,0,47,10,25,77,23.5,74.2,25,77,11.4,52.5,0,0,0,0,10,6,7.9,12.7
Lucknow,1637245800,11/18/2021 20:00,22.4,72.4,0,Clear,//cdn.weatherapi.com/weather/64x64/night/113.png,1000,5.3,8.5,346,NNW,1012,29.89,0,0,49,11,24.7,76.5,22.4,72.4,24.7,76.5,11.2,52.2,0,0,0,0,10,6,9.1,14.6
Lucknow,1637249400,11/18/2021 21:00,21.4,70.5,0,Clear,//cdn.weatherapi.com/weather/64x64/night/113.png,1000,5.6,9,345,NNW,1013,29.9,0,0,52,12,21.4,70.5,21.4,70.5,24.4,75.9,11,51.8,0,0,0,0,10,6,10.3,16.6
Lucknow,1637253000,11/18/2021 22:00,20.9,69.6,0,Clear,//cdn.weatherapi.com/weather/64x64/night/113.png,1000,5.9,9.5,346,NNW,1012,29.89,0,0,51,23,20.9,69.6,20.9,69.6,22.9,73.2,10.5,50.8,0,0,0,0,10,6,11.2,18
Lucknow,1637256600,11/18/2021 23:00,20.4,68.7,0,Partly cloudy,//cdn.weatherapi.com/weather/64x64/night/116.png,1003,6.2,10,347,NNW,1012,29.88,0,0,51,34,20.4,68.7,20.4,68.7,21.4,70.5,9.9,49.9,0,1,0,0,10,6,12.1,19.4
Lucknow,1637260200,11/19/2021 0:00,19.9,67.8,0,Partly cloudy,//cdn.weatherapi.com/weather/64x64/night/116.png,1003,6.5,10.4,347,NNW,1011,29.86,0,0,51,45,19.9,67.8,19.9,67.8,19.9,67.8,9.4,48.9,0,0,0,0,10,6,13,20.9
Lucknow,1637263800,11/19/2021 1:00,19.6,67.3,0,Partly cloudy,//cdn.weatherapi.com/weather/64x64/night/116.png,1003,5.7,9.1,351,N,1011,29.86,0,0,51,41,19.6,67.3,19.6,67.3,19.6,67.3,9.3,48.8,0,1,0,0,10,6,11.3,18.1
Lucknow,1637267400,11/19/2021 2:00,19.3,66.7,0,Partly cloudy,//cdn.weatherapi.com/weather/64x64/night/116.png,1003,4.8,7.8,355,N,1011,29.85,0,0,52,37,19.3,66.7,19.3,66.7,19.3,66.7,9.3,48.7,0,1,0,0,10,6,9.5,15.4
Lucknow,1637271000,11/19/2021 3:00,19,66.2,0,Partly cloudy,//cdn.weatherapi.com/weather/64x64/night/116.png,1003,4,6.5,358,N,1011,29.85,0,0,53,32,19,66.2,19,66.2,19,66.2,9.2,48.6,0,0,0,0,10,6,7.8,12.6
Lucknow,1637274600,11/19/2021 4:00,18.7,65.7,0,Partly cloudy,//cdn.weatherapi.com/weather/64x64/night/116.png,1003,4,6.4,356,N,1011,29.85,0,0,54,30,18.7,65.7,18.7,65.7,18.7,65.7,9.2,48.5,0,1,0,0,10,6,7.8,12.5
Lucknow,1637278200,11/19/2021 5:00,18.4,65.1,0,Clear,//cdn.weatherapi.com/weather/64x64/night/113.png,1000,3.9,6.2,354,N,1011,29.86,0,0,55,27,18.4,65.1,18.4,65.1,18.4,65.1,9.1,48.4,0,0,0,0,10,6,7.7,12.4
Lucknow,1637281800,11/19/2021 6:00,18.1,64.6,0,Clear,//cdn.weatherapi.com/weather/64x64/night/113.png,1000,3.8,6.1,352,N,1011,29.86,0,0,55,24,18.1,64.6,18.1,64.6,18.1,64.6,9.1,48.4,0,0,0,0,10,6,7.6,12.2
Lucknow,1637285400,11/19/2021 7:00,19.6,67.3,1,Sunny,//cdn.weatherapi.com/weather/64x64/day/113.png,1000,4,6.4,348,NNW,1012,29.88,0,0,51,18,19.6,67.3,19.6,67.3,20.2,68.3,9.1,48.4,0,0,0,0,10,6,6.8,10.9
Lucknow,1637289000,11/19/2021 8:00,21.1,70,1,Sunny,//cdn.weatherapi.com/weather/64x64/day/113.png,1000,4.1,6.6,345,NNW,1013,29.9,0,0,47,12,21.1,70,21.1,70,22.2,72,9.2,48.5,0,0,0,0,10,6,6,9.6
Lucknow,1637292600,11/19/2021 9:00,22.6,72.7,1,Sunny,//cdn.weatherapi.com/weather/64x64/day/113.png,1000,4.3,6.8,341,NNW,1013,29.92,0,0,42,6,24.3,75.7,22.6,72.7,24.3,75.7,9.2,48.6,0,0,0,0,10,6,5.1,8.3
Lucknow,1637296200,11/19/2021 10:00,24.8,76.6,1,Sunny,//cdn.weatherapi.com/weather/64x64/day/113.png,1000,4.5,7.3,332,NNW,1012,29.89,0,0,38,7,25.6,78,24.8,76.6,25.6,78,9.4,48.9,0,0,0,0,10,6,5.4,8.6
Lucknow,1637299800,11/19/2021 11:00,27,80.6,1,Sunny,//cdn.weatherapi.com/weather/64x64/day/113.png,1000,4.8,7.8,323,NW,1011,29.86,0,0,34,7,26.8,80.3,27,80.6,26.8,80.3,9.6,49.3,0,0,0,0,10,6,5.6,9
Lucknow,1637303400,11/19/2021 12:00,29.2,84.6,1,Sunny,//cdn.weatherapi.com/weather/64x64/day/113.png,1000,5.1,8.3,314,NW,1010,29.83,0,0,30,8,28.1,82.6,29.2,84.6,28.1,82.6,9.8,49.6,0,0,0,0,10,6,5.8,9.4
Lucknow,1637307000,11/19/2021 13:00,29.3,84.8,1,Sunny,//cdn.weatherapi.com/weather/64x64/day/113.png,1000,5.4,8.6,315,NW,1009,29.81,0,0,29,8,28.2,82.7,29.3,84.8,28.2,82.7,9.6,49.3,0,0,0,0,10,6,6.1,9.8
Lucknow,1637310600,11/19/2021 14:00,29.5,85,1,Sunny,//cdn.weatherapi.com/weather/64x64/day/113.png,1000,5.6,9,316,NW,1009,29.79,0,0,29,8,28.2,82.8,29.5,85,28.2,82.8,9.4,48.9,0,0,0,0,10,6,6.4,10.3
Lucknow,1637314200,11/19/2021 15:00,29.6,85.3,1,Sunny,//cdn.weatherapi.com/weather/64x64/day/113.png,1000,5.8,9.4,317,NW,1008,29.77,0,0,28,8,28.3,82.9,29.6,85.3,28.3,82.9,9.2,48.6,0,0,0,0,10,6,6.7,10.8
Lucknow,1637317800,11/19/2021 16:00,28.2,82.8,1,Sunny,//cdn.weatherapi.com/weather/64x64/day/113.png,1000,5.3,8.5,317,NW,1008,29.78,0,0,31,6,27.4,81.3,28.2,82.8,27.4,81.3,9.5,49.2,0,0,0,0,10,6,6.3,10.1
Lucknow,1637321400,11/19/2021 17:00,26.9,80.4,1,Sunny,//cdn.weatherapi.com/weather/64x64/day/113.png,1000,4.8,7.7,317,NW,1009,29.79,0,0,35,4,26.5,79.7,26.9,80.4,26.5,79.7,9.9,49.8,0,0,0,0,10,6,5.8,9.4
Lucknow,1637325000,11/19/2021 18:00,25.5,77.9,0,Clear,//cdn.weatherapi.com/weather/64x64/night/113.png,1000,4.3,6.8,317,NW,1009,29.8,0,0,38,2,25.6,78.1,25.5,77.9,25.6,78.1,10.2,50.4,0,0,0,0,10,6,5.4,8.6
Lucknow,1637328600,11/19/2021 19:00,24.1,75.3,0,Clear,//cdn.weatherapi.com/weather/64x64/night/113.png,1000,4.1,6.6,324,NW,1010,29.82,0,0,40,2,25.1,77.1,24.1,75.3,25.1,77.1,9.5,49.1,0,0,0,0,10,6,6.1,9.8
Lucknow,1637332200,11/19/2021 20:00,22.6,72.7,0,Clear,//cdn.weatherapi.com/weather/64x64/night/113.png,1000,4,6.4,330,NNW,1010,29.84,0,0,41,3,24.5,76.2,22.6,72.7,24.5,76.2,8.8,47.8,0,0,0,0,10,6,6.9,11
Lucknow,1637335800,11/19/2021 21:00,21.2,70.2,0,Clear,//cdn.weatherapi.com/weather/64x64/night/113.png,1000,3.8,6.1,337,NNW,1011,29.85,0,0,43,4,21.2,70.2,21.2,70.2,24,75.2,8.1,46.6,0,0,0,0,10,6,7.6,12.2
Lucknow,1637339400,11/19/2021 22:00,21,69.9,0,Clear,//cdn.weatherapi.com/weather/64x64/night/113.png,1000,3.5,5.6,333,NNW,1011,29.85,0,0,45,17,21,69.9,21,69.9,22.9,73.2,8.6,47.4,0,0,0,0,10,6,7,11.3
Lucknow,1637343000,11/19/2021 23:00,20.9,69.6,0,Partly cloudy,//cdn.weatherapi.com/weather/64x64/night/116.png,1003,3.2,5.2,329,NNW,1011,29.84,0,0,47,30,20.9,69.6,20.9,69.6,21.8,71.2,9,48.3,0,1,0,0,10,6,6.4,10.3
Lucknow,1637346600,11/20/2021 0:00,20.7,69.3,0,Partly cloudy,//cdn.weatherapi.com/weather/64x64/night/116.png,1003,2.9,4.7,325,NW,1011,29.84,0,0,49,44,20.7,69.3,20.7,69.3,20.7,69.3,9.5,49.1,0,0,0,0,10,6,5.8,9.4
Lucknow,1637350200,11/20/2021 1:00,20.5,68.8,0,Partly cloudy,//cdn.weatherapi.com/weather/64x64/night/116.png,1003,3.4,5.5,335,NNW,1010,29.83,0,0,49,43,20.5,68.8,20.5,68.8,20.5,68.8,9.4,48.9,0,1,0,0,10,6,6.9,11
Lucknow,1637353800,11/20/2021 2:00,20.2,68.4,0,Partly cloudy,//cdn.weatherapi.com/weather/64x64/night/116.png,1003,4,6.4,345,NNW,1010,29.82,0,0,49,43,20.2,68.4,20.2,68.4,20.2,68.4,9.3,48.7,0,1,0,0,10,6,7.9,12.7
Lucknow,1637357400,11/20/2021 3:00,20,68,0,Partly cloudy,//cdn.weatherapi.com/weather/64x64/night/116.png,1003,4.5,7.2,355,N,1009,29.81,0,0,50,43,20,68,20,68,20,68,9.2,48.6,0,0,0,0,10,6,8.9,14.4
Lucknow,1637361000,11/20/2021 4:00,20,67.9,0,Partly cloudy,//cdn.weatherapi.com/weather/64x64/night/116.png,1003,4,6.5,346,NNW,1010,29.82,0,0,50,44,20,67.9,20,67.9,20,67.9,9.2,48.6,0,1,0,0,10,6,7.8,12.6
Lucknow,1637364600,11/20/2021 5:00,19.9,67.9,0,Partly cloudy,//cdn.weatherapi.com/weather/64x64/night/116.png,1003,3.6,5.8,336,NNW,1010,29.84,0,0,50,45,19.9,67.9,19.9,67.9,19.9,67.9,9.2,48.6,0,1,0,0,10,6,6.7,10.8
Lucknow,1637368200,11/20/2021 6:00,19.9,67.8,0,Partly cloudy,//cdn.weatherapi.com/weather/64x64/night/116.png,1003,3.1,5,327,NNW,1011,29.85,0,0,50,46,19.9,67.8,19.9,67.8,19.9,67.8,9.2,48.6,0,0,0,0,10,6,5.6,9
Lucknow,1637371800,11/20/2021 7:00,20.9,69.6,1,Partly cloudy,//cdn.weatherapi.com/weather/64x64/day/116.png,1003,3.2,5.2,333,NNW,1012,29.87,0,0,48,34,20.9,69.6,20.9,69.6,21.4,70.5,9.3,48.8,0,1,0,0,10,6,5.1,8.3
Lucknow,1637375400,11/20/2021 8:00,21.9,71.4,1,Sunny,//cdn.weatherapi.com/weather/64x64/day/113.png,1000,3.3,5.3,339,NNW,1012,29.88,0,0,45,21,21.9,71.4,21.9,71.4,22.9,73.2,9.5,49,0,0,0,0,10,6,4.7,7.6
Lucknow,1637379000,11/20/2021 9:00,22.9,73.2,1,Sunny,//cdn.weatherapi.com/weather/64x64/day/113.png,1000,3.4,5.4,345,NNW,1013,29.9,0,0,43,9,24.4,75.9,22.9,73.2,24.4,75.9,9.6,49.3,0,0,0,0,10,6,4.3,6.8
Lucknow,1637382600,11/20/2021 10:00,24.7,76.4,1,Sunny,//cdn.weatherapi.com/weather/64x64/day/113.png,1000,4,6.4,323,NW,1012,29.88,0,0,38,21,25.3,77.5,24.7,76.4,25.3,77.5,9.2,48.6,0,0,0,0,10,6,4.8,7.7
Lucknow,1637386200,11/20/2021 11:00,26.4,79.6,1,Partly cloudy,//cdn.weatherapi.com/weather/64x64/day/116.png,1003,4.5,7.3,301,WNW,1011,29.86,0,0,34,32,26.1,79,26.4,79.6,26.1,79,8.9,48,0,1,0,0,10,6,5.3,8.5
Lucknow,1637389800,11/20/2021 12:00,28.2,82.8,1,Partly cloudy,//cdn.weatherapi.com/weather/64x64/day/116.png,1003,5.1,8.3,279,W,1010,29.84,0,0,29,44,27,80.6,28.2,82.8,27,80.6,8.5,47.3,0,0,0,0,10,6,5.8,9.4
Lucknow,1637393400,11/20/2021 13:00,28,82.4,1,Partly cloudy,//cdn.weatherapi.com/weather/64x64/day/116.png,1003,6,9.7,285,WNW,1010,29.82,0,0,30,40,26.9,80.4,28,82.4,26.9,80.4,8.6,47.5,0,1,0,0,10,6,6.9,11.2
Lucknow,1637397000,11/20/2021 14:00,27.8,82,1,Partly cloudy,//cdn.weatherapi.com/weather/64x64/day/116.png,1003,6.9,11.2,292,WNW,1009,29.81,0,0,30,36,26.8,80.2,27.8,82,26.8,80.2,8.7,47.7,0,1,0,0,10,6,8.1,13
Lucknow,1637400600,11/20/2021 15:00,27.6,81.7,1,Partly cloudy,//cdn.weatherapi.com/weather/64x64/day/116.png,1003,7.8,12.6,299,WNW,1009,29.8,0,0,31,31,26.7,80.1,27.6,81.7,26.7,80.1,8.8,47.8,0,0,0,0,10,6,9.2,14.8
Lucknow,1637404200,11/20/2021 16:00,26.9,80.4,1,Partly cloudy,//cdn.weatherapi.com/weather/64x64/day/116.png,1003,6.5,10.4,295,WNW,1009,29.8,0,0,33,25,26.3,79.3,26.9,80.4,26.3,79.3,9,48.1,0,1,0,0,10,6,7.9,12.7
Lucknow,1637407800,11/20/2021 17:00,26.1,79,1,Sunny,//cdn.weatherapi.com/weather/64x64/day/113.png,1000,5.1,8.3,292,WNW,1009,29.81,0,0,34,19,25.8,78.5,26.1,79,25.8,78.5,9.1,48.4,0,0,0,0,10,6,6.6,10.7
Lucknow,1637411400,11/20/2021 18:00,25.4,77.7,0,Clear,//cdn.weatherapi.com/weather/64x64/night/113.png,1000,3.8,6.1,288,WNW,1010,29.81,0,0,36,14,25.4,77.7,25.4,77.7,25.4,77.7,9.3,48.7,0,0,0,0,10,6,5.4,8.6
Lucknow,1637415000,11/20/2021 19:00,24.6,76.2,0,Clear,//cdn.weatherapi.com/weather/64x64/night/113.png,1000,4.2,6.7,294,WNW,1010,29.83,0,0,37,12,25,77.1,24.6,76.2,25,77.1,9,48.2,0,0,0,0,10,6,6.6,10.7
Lucknow,1637418600,11/20/2021 20:00,23.7,74.7,0,Clear,//cdn.weatherapi.com/weather/64x64/night/113.png,1000,4.5,7.3,300,WNW,1011,29.85,0,0,38,10,24.7,76.4,23.7,74.7,24.7,76.4,8.7,47.7,0,0,0,0,10,6,7.9,12.7
Lucknow,1637422200,11/20/2021 21:00,22.9,73.2,0,Clear,//cdn.weatherapi.com/weather/64x64/night/113.png,1000,4.9,7.9,307,NW,1011,29.87,0,0,39,8,24.3,75.7,22.9,73.2,24.3,75.7,8.4,47.1,0,0,0,0,10,6,9.2,14.8
Lucknow,1637425800,11/20/2021 22:00,21.6,70.8,0,Clear,//cdn.weatherapi.com/weather/64x64/night/113.png,1000,5.2,8.4,294,WNW,1011,29.87,0,0,56,9,21.6,70.8,21.6,70.8,22.5,72.5,11.3,52.4,0,0,0,0,10,6,9.6,15.5
Lucknow,1637429400,11/20/2021 23:00,20.2,68.4,0,Clear,//cdn.weatherapi.com/weather/64x64/night/113.png,1000,5.5,8.9,281,WNW,1012,29.87,0,0,73,10,20.2,68.4,20.2,68.4,20.7,69.3,14.3,57.7,0,0,0,0,10,6,10.1,16.2
Lucknow,1637433000,11/21/2021 0:00,18.9,66,0,Clear,//cdn.weatherapi.com/weather/64x64/night/113.png,1000,5.8,9.4,268,W,1012,29.87,0,0,90,12,18.9,66,18.9,66,18.9,66,17.2,63,0,0,0,0,10,6,10.5,16.9
Lucknow,1637436600,11/21/2021 1:00,18.8,65.8,0,Clear,//cdn.weatherapi.com/weather/64x64/night/113.png,1000,5.9,9.5,277,W,1011,29.86,0,0,87,13,18.8,65.8,18.8,65.8,18.8,65.8,16.5,61.8,0,0,0,0,10,6,10.8,17.4
Lucknow,1637440200,11/21/2021 2:00,18.7,65.7,0,Clear,//cdn.weatherapi.com/weather/64x64/night/113.png,1000,6,9.6,286,WNW,1011,29.86,0,0,84,15,18.7,65.7,18.7,65.7,18.7,65.7,15.9,60.6,0,0,0,0,10,6,11.1,17.9
Lucknow,1637443800,11/21/2021 3:00,18.6,65.5,0,Clear,//cdn.weatherapi.com/weather/64x64/night/113.png,1000,6,9.7,295,WNW,1011,29.85,0,0,80,17,18.6,65.5,18.6,65.5,18.6,65.5,15.2,59.4,0,0,0,0,10,6,11.4,18.4
Lucknow,1637447400,11/21/2021 4:00,18.4,65.2,0,Clear,//cdn.weatherapi.com/weather/64x64/night/113.png,1000,6,9.7,287,WNW,1011,29.86,0,0,76,18,18.4,65.2,18.4,65.2,18.4,65.2,14.2,57.6,0,0,0,0,10,6,11.6,18.7
Lucknow,1637451000,11/21/2021 5:00,18.3,64.9,0,Clear,//cdn.weatherapi.com/weather/64x64/night/113.png,1000,6,9.7,279,W,1012,29.88,0,0,72,19,18.3,64.9,18.3,64.9,18.3,64.9,13.2,55.8,0,0,0,0,10,6,11.9,19.1
Lucknow,1637454600,11/21/2021 6:00,18.1,64.6,0,Clear,//cdn.weatherapi.com/weather/64x64/night/113.png,1000,6,9.7,271,W,1012,29.89,0,0,68,20,18.1,64.6,18.1,64.6,18.1,64.6,12.2,54,0,0,0,0,10,6,12.1,19.4
Lucknow,1637458200,11/21/2021 7:00,19.9,67.9,1,Sunny,//cdn.weatherapi.com/weather/64x64/day/113.png,1000,6.4,10.3,277,W,1013,29.91,0,0,61,17,19.9,67.9,19.9,67.9,20.4,68.7,11.9,53.4,0,0,0,0,10,6,10.9,17.5
Lucknow,1637461800,11/21/2021 8:00,21.8,71.2,1,Sunny,//cdn.weatherapi.com/weather/64x64/day/113.png,1000,6.8,10.9,283,WNW,1013,29.93,0,0,53,15,21.8,71.2,21.8,71.2,22.6,72.7,11.5,52.8,0,0,0,0,10,6,9.7,15.6
Lucknow,1637465400,11/21/2021 9:00,23.6,74.5,1,Sunny,//cdn.weatherapi.com/weather/64x64/day/113.png,1000,7.2,11.5,289,WNW,1014,29.94,0,0,46,12,24.9,76.8,23.6,74.5,24.9,76.8,11.2,52.2,0,0,0,0,10,6,8.5,13.7
Lucknow,1637469000,11/21/2021 10:00,26.1,78.9,1,Sunny,//cdn.weatherapi.com/weather/64x64/day/113.png,1000,7.6,12.2,291,WNW,1013,29.92,0,0,41,11,26.7,80.1,26.1,78.9,26.7,80.1,11.6,52.9,0,0,0,0,10,6,8.9,14.4
Lucknow,1637472600,11/21/2021 11:00,28.5,83.4,1,Sunny,//cdn.weatherapi.com/weather/64x64/day/113.png,1000,8.1,13,294,WNW,1012,29.9,0,0,37,9,28.5,83.3,28.5,83.4,28.5,83.3,12.1,53.7,0,0,0,0,10,6,9.4,15.1
Lucknow,1637476200,11/21/2021 12:00,31,87.8,1,Sunny,//cdn.weatherapi.com/weather/64x64/day/113.png,1000,8.5,13.7,296,WNW,1012,29.87,0,0,32,8,30.3,86.5,31,87.8,30.3,86.5,12.5,54.5,0,0,0,0,10,6,9.8,15.8
Lucknow,1637479800,11/21/2021 13:00,30.4,86.7,1,Sunny,//cdn.weatherapi.com/weather/64x64/day/113.png,1000,8.9,14.3,297,WNW,1011,29.85,0,0,32,7,29.6,85.3,30.4,86.7,29.6,85.3,12.1,53.7,0,0,0,0,10,6,10.3,16.6
Lucknow,1637483400,11/21/2021 14:00,29.7,85.5,1,Sunny,//cdn.weatherapi.com/weather/64x64/day/113.png,1000,9.2,14.9,298,WNW,1010,29.84,0,0,33,6,29,84.1,29.7,85.5,29,84.1,11.6,52.9,0,0,0,0,10,6,10.7,17.3
Lucknow,1637487000,11/21/2021 15:00,29.1,84.4,1,Sunny,//cdn.weatherapi.com/weather/64x64/day/113.png,1000,9.6,15.5,299,WNW,1010,29.82,0,0,33,5,28.3,82.9,29.1,84.4,28.3,82.9,11.2,52.2,0,0,0,0,10,6,11.2,18
Lucknow,1637490600,11/21/2021 16:00,28.2,82.8,1,Sunny,//cdn.weatherapi.com/weather/64x64/day/113.png,1000,8.6,13.9,299,WNW,1010,29.83,0,0,35,3,27.6,81.7,28.2,82.8,27.6,81.7,11.2,52.1,0,0,0,0,10,6,10.6,17
Lucknow,1637494200,11/21/2021 17:00,27.3,81.1,1,Sunny,//cdn.weatherapi.com/weather/64x64/day/113.png,1000,7.7,12.4,298,WNW,1011,29.84,0,0,37,2,27,80.5,27.3,81.1,27,80.5,11.1,52,0,0,0,0,10,6,10,16.1
Lucknow,1637497800,11/21/2021 18:00,26.4,79.5,0,Clear,//cdn.weatherapi.com/weather/64x64/night/113.png,1000,6.7,10.8,298,WNW,1011,29.85,0,0,38,0,26.3,79.3,26.4,79.5,26.3,79.3,11.1,52,0,0,0,0,10,6,9.4,15.1
Lucknow,1637501400,11/21/2021 19:00,24.9,76.8,0,Clear,//cdn.weatherapi.com/weather/64x64/night/113.png,1000,6.3,10.2,296,WNW,1011,29.87,0,0,38,0,25.5,77.9,24.9,76.8,25.5,77.9,9.7,49.5,0,0,0,0,10,6,10.1,16.3
Lucknow,1637505000,11/21/2021 20:00,23.3,74,0,Clear,//cdn.weatherapi.com/weather/64x64/night/113.png,1000,6,9.6,294,WNW,1012,29.88,0,0,38,0,24.7,76.5,23.3,74,24.7,76.5,8.3,46.9,0,0,0,0,10,6,10.9,17.5
Lucknow,1637508600,11/21/2021 21:00,21.8,71.2,0,Clear,//cdn.weatherapi.com/weather/64x64/night/113.png,1000,5.6,9,293,WNW,1012,29.89,0,0,38,0,21.8,71.2,21.8,71.2,23.9,75,6.9,44.4,0,0,0,0,10,6,11.6,18.7
Lucknow,1637512200,11/21/2021 22:00,21.4,70.6,0,Clear,//cdn.weatherapi.com/weather/64x64/night/113.png,1000,6,9.7,296,WNW,1012,29.88,0,0,37,1,21.4,70.6,21.4,70.6,22.8,73.1,6.1,43,0,0,0,0,10,6,12.6,20.3
Lucknow,1637515800,11/21/2021 23:00,21.1,69.9,0,Clear,//cdn.weatherapi.com/weather/64x64/night/113.png,1000,6.5,10.4,299,WNW,1012,29.87,0,0,36,2,21.1,69.9,21.1,69.9,21.8,71.2,5.4,41.7,0,0,0,0,10,6,13.6,21.8
Lucknow,1637519400,11/22/2021 0:00,20.7,69.3,0,Clear,//cdn.weatherapi.com/weather/64x64/night/113.png,1000,6.9,11.2,302,WNW,1011,29.87,0,0,35,3,20.7,69.3,20.7,69.3,20.7,69.3,4.6,40.3,0,0,0,0,10,6,14.5,23.4
Lucknow,1637523000,11/22/2021 1:00,20.1,68.2,0,Clear,//cdn.weatherapi.com/weather/64x64/night/113.png,1000,6.8,10.9,306,NW,1011,29.86,0,0,34,2,20.1,68.2,20.1,68.2,20.1,68.2,4,39.2,0,0,0,0,10,6,14.2,22.9
Lucknow,1637526600,11/22/2021 2:00,19.5,67.1,0,Clear,//cdn.weatherapi.com/weather/64x64/night/113.png,1000,6.6,10.7,309,NW,1011,29.86,0,0,34,1,19.5,67.1,19.5,67.1,19.5,67.1,3.4,38.1,0,0,0,0,10,6,13.9,22.4
Lucknow,1637530200,11/22/2021 3:00,18.9,66,0,Clear,//cdn.weatherapi.com/weather/64x64/night/113.png,1000,6.5,10.4,313,NW,1011,29.85,0,0,34,0,18.9,66,18.9,66,18.9,66,2.8,37,0,0,0,0,10,6,13.6,22
Lucknow,1637533800,11/22/2021 4:00,18.4,65.1,0,Clear,//cdn.weatherapi.com/weather/64x64/night/113.png,1000,6.3,10.2,307,NW,1011,29.87,0,0,35,0,18.4,65.1,18.4,65.1,18.4,65.1,2.6,36.7,0,0,0,0,10,6,13.3,21.5
Lucknow,1637537400,11/22/2021 5:00,17.9,64.2,0,Clear,//cdn.weatherapi.com/weather/64x64/night/113.png,1000,6.2,10,302,WNW,1012,29.88,0,0,35,0,17.9,64.2,17.9,64.2,17.9,64.2,2.4,36.3,0,0,0,0,10,6,13,21
Lucknow,1637541000,11/22/2021 6:00,17.4,63.3,0,Clear,//cdn.weatherapi.com/weather/64x64/night/113.png,1000,6,9.7,296,WNW,1012,29.89,0,0,36,0,17.4,63.3,17.4,63.3,17.4,63.3,2.2,36,0,0,0,0,10,6,12.8,20.5
Lucknow,1637544600,11/22/2021 7:00,19.2,66.6,1,Sunny,//cdn.weatherapi.com/weather/64x64/day/113.png,1000,6.6,10.6,298,WNW,1013,29.91,0,0,33,0,19.2,66.6,19.2,66.6,19.4,66.9,2.4,36.4,0,0,0,0,10,6,11.6,18.6
Lucknow,1637548200,11/22/2021 8:00,21,69.8,1,Sunny,//cdn.weatherapi.com/weather/64x64/day/113.png,1000,7.1,11.4,299,WNW,1014,29.93,0,0,30,0,21,69.8,21,69.8,21.3,70.4,2.7,36.8,0,0,0,0,10,6,10.4,16.7
Lucknow,1637551800,11/22/2021 9:00,22.8,73,1,Sunny,//cdn.weatherapi.com/weather/64x64/day/113.png,1000,7.6,12.2,301,WNW,1014,29.95,0,0,27,0,23.3,73.9,22.8,73,23.3,73.9,2.9,37.2,0,0,0,0,10,6,9.2,14.8
Lucknow,1637555400,11/22/2021 10:00,24.7,76.5,1,Sunny,//cdn.weatherapi.com/weather/64x64/day/113.png,1000,8.4,13.4,299,WNW,1013,29.92,0,0,24,0,24.3,75.8,24.7,76.5,24.3,75.8,2.4,36.3,0,0,0,0,10,6,9.9,16
Lucknow,1637559000,11/22/2021 11:00,26.6,79.9,1,Sunny,//cdn.weatherapi.com/weather/64x64/day/113.png,1000,9.1,14.6,298,WNW,1012,29.89,0,0,20,0,25.4,77.7,26.6,79.9,25.4,77.7,1.8,35.3,0,0,0,0,10,6,10.7,17.2
Lucknow,1637562600,11/22/2021 12:00,28.5,83.3,1,Sunny,//cdn.weatherapi.com/weather/64x64/day/113.png,1000,9.8,15.8,296,WNW,1011,29.87,0,0,17,0,26.4,79.5,28.5,83.3,26.4,79.5,1.3,34.3,0,0,0,0,10,6,11.4,18.4
Lucknow,1637566200,11/22/2021 13:00,28.2,82.8,1,Sunny,//cdn.weatherapi.com/weather/64x64/day/113.png,1000,10.1,16.2,296,WNW,1011,29.85,0,0,18,0,26.2,79.2,28.2,82.8,26.2,79.2,1.4,34.5,0,0,0,0,10,6,11.9,19.2
Lucknow,1637569800,11/22/2021 14:00,28,82.3,1,Sunny,//cdn.weatherapi.com/weather/64x64/day/113.png,1000,10.3,16.6,297,WNW,1010,29.83,0,0,18,0,26,78.8,28,82.3,26,78.8,1.4,34.6,0,0,0,0,10,6,12.5,20
Lucknow,1637573400,11/22/2021 15:00,27.7,81.9,1,Sunny,//cdn.weatherapi.com/weather/64x64/day/113.png,1000,10.5,16.9,297,WNW,1009,29.8,0,0,18,0,25.8,78.4,27.7,81.9,25.8,78.4,1.5,34.7,0,0,0,0,10,6,13,20.9
Lucknow,1637577000,11/22/2021 16:00,26.6,79.9,1,Sunny,//cdn.weatherapi.com/weather/64x64/day/113.png,1000,9.2,14.8,295,WNW,1010,29.82,0,0,21,0,25.2,77.4,26.6,79.9,25.2,77.4,2.4,36.3,0,0,0,0,10,6,11.9,19.2
Lucknow,1637580600,11/22/2021 17:00,25.6,78,1,Sunny,//cdn.weatherapi.com/weather/64x64/day/113.png,1000,7.8,12.6,293,WNW,1010,29.83,0,0,24,0,24.7,76.4,25.6,78,24.7,76.4,3.3,37.9,0,0,0,0,10,6,10.9,17.5
Lucknow,1637584200,11/22/2021 18:00,24.5,76.1,0,Clear,//cdn.weatherapi.com/weather/64x64/night/113.png,1000,6.5,10.4,291,WNW,1010,29.84,0,0,27,0,24.1,75.4,24.5,76.1,24.1,75.4,4.2,39.6,0,0,0,0,10,6,9.8,15.8
Lucknow,1637587800,11/22/2021 19:00,22.9,73.2,0,Clear,//cdn.weatherapi.com/weather/64x64/night/113.png,1000,6.3,10.2,288,WNW,1011,29.85,0,0,28,0,22.6,72.7,22.9,73.2,22.6,72.7,3.2,37.8,0,0,0,0,10,6,10.8,17.4
Lucknow,1637591400,11/22/2021 20:00,21.2,70.2,0,Clear,//cdn.weatherapi.com/weather/64x64/night/113.png,1000,6.2,10,285,WNW,1011,29.86,0,0,29,0,21.2,70.2,21.2,70.2,21.1,70,2.3,36.1,0,0,0,0,10,6,11.8,19
Lucknow,1637595000,11/22/2021 21:00,19.6,67.3,0,Clear,//cdn.weatherapi.com/weather/64x64/night/113.png,1000,6,9.7,282,WNW,1011,29.87,0,0,29,0,19.6,67.3,19.6,67.3,19.6,67.3,1.3,34.3,0,0,0,0,10,6,12.8,20.5
Lucknow,1637598600,11/22/2021 22:00,19,66.3,0,Clear,//cdn.weatherapi.com/weather/64x64/night/113.png,1000,5.9,9.5,279,W,1011,29.86,0,0,31,0,19,66.3,19,66.3,19,66.3,1.5,34.8,0,0,0,0,10,6,12.4,19.9
Lucknow,1637602200,11/22/2021 23:00,18.5,65.2,0,Clear,//cdn.weatherapi.com/weather/64x64/night/113.png,1000,5.7,9.2,277,W,1011,29.86,0,0,33,0,18.5,65.2,18.5,65.2,18.5,65.2,1.8,35.2,0,0,0,0,10,6,12,19.3
Lucknow,1637605800,11/23/2021 0:00,17.9,64.2,0,Clear,//cdn.weatherapi.com/weather/64x64/night/113.png,1000,5.6,9,274,W,1011,29.85,0,0,34,0,17.9,64.2,17.9,64.2,17.9,64.2,2,35.6,0,0,0,0,10,6,11.6,18.7
Lucknow,1637609400,11/23/2021 1:00,17.5,63.5,0,Clear,//cdn.weatherapi.com/weather/64x64/night/113.png,1000,5.4,8.8,279,W,1011,29.85,0,0,35,0,17.5,63.5,17.5,63.5,17.5,63.5,1.8,35.3,0,0,0,0,10,6,11.3,18.2
Lucknow,1637613000,11/23/2021 2:00,17.1,62.8,0,Clear,//cdn.weatherapi.com/weather/64x64/night/113.png,1000,5.3,8.5,283,WNW,1011,29.84,0,0,35,0,17.1,62.8,17.1,62.8,17.1,62.8,1.7,35,0,0,0,0,10,6,11,17.8
Lucknow,1637616600,11/23/2021 3:00,16.7,62.1,0,Clear,//cdn.weatherapi.com/weather/64x64/night/113.png,1000,5.1,8.3,288,WNW,1010,29.83,0,0,36,0,16.7,62.1,16.7,62.1,16.7,62.1,1.5,34.7,0,0,0,0,10,6,10.7,17.3
Lucknow,1637620200,11/23/2021 4:00,16.4,61.5,0,Clear,//cdn.weatherapi.com/weather/64x64/night/113.png,1000,4.9,7.9,290,WNW,1011,29.85,0,0,36,0,16.4,61.5,16.4,61.5,16.4,61.5,1.2,34.2,0,0,0,0,10,6,10.3,16.6
Lucknow,1637623800,11/23/2021 5:00,16,60.9,0,Clear,//cdn.weatherapi.com/weather/64x64/night/113.png,1000,4.7,7.6,293,WNW,1011,29.87,0,0,36,0,16,60.9,16,60.9,16,60.9,1,33.7,0,0,0,0,10,6,9.8,15.8
Lucknow,1637627400,11/23/2021 6:00,15.7,60.3,0,Clear,//cdn.weatherapi.com/weather/64x64/night/113.png,1000,4.5,7.2,295,WNW,1012,29.88,0,0,36,0,15.7,60.3,15.7,60.3,15.7,60.3,0.7,33.3,0,0,0,0,10,6,9.4,15.1
Lucknow,1637631000,11/23/2021 7:00,17.6,63.7,1,Sunny,//cdn.weatherapi.com/weather/64x64/day/113.png,1000,4.4,7.1,299,WNW,1013,29.9,0,0,33,0,17.6,63.7,17.6,63.7,18,64.5,1,33.8,0,0,0,0,10,6,8,12.8
Lucknow,1637634600,11/23/2021 8:00,19.5,67.1,1,Sunny,//cdn.weatherapi.com/weather/64x64/day/113.png,1000,4.3,7,304,NW,1013,29.92,0,0,30,0,19.5,67.1,19.5,67.1,20.4,68.7,1.3,34.3,0,0,0,0,10,6,6.6,10.6
Lucknow,1637638200,11/23/2021 9:00,21.4,70.5,1,Sunny,//cdn.weatherapi.com/weather/64x64/day/113.png,1000,4.3,6.8,308,NW,1014,29.94,0,0,27,0,21.4,70.5,21.4,70.5,22.7,72.9,1.6,34.9,0,0,0,0,10,6,5.1,8.3
Lucknow,1637641800,11/23/2021 10:00,23.8,74.8,1,Sunny,//cdn.weatherapi.com/weather/64x64/day/113.png,1000,4.5,7.2,302,WNW,1013,29.92,0,0,24,0,24,75.1,23.8,74.8,24,75.1,1.9,35.5,0,0,0,0,10,6,5.3,8.5
Lucknow,1637645400,11/23/2021 11:00,26.2,79.2,1,Sunny,//cdn.weatherapi.com/weather/64x64/day/113.png,1000,4.7,7.6,297,WNW,1013,29.9,0,0,21,0,25.2,77.4,26.2,79.2,25.2,77.4,2.3,36.1,0,0,0,0,10,6,5.4,8.8
Lucknow,1637649000,11/23/2021 12:00,28.6,83.5,1,Sunny,//cdn.weatherapi.com/weather/64x64/day/113.png,1000,4.9,7.9,291,WNW,1012,29.88,0,0,19,0,26.5,79.7,28.6,83.5,26.5,79.7,2.6,36.7,0,0,0,0,10,6,5.6,9
Lucknow,1637652600,11/23/2021 13:00,28.8,83.8,1,Sunny,//cdn.weatherapi.com/weather/64x64/day/113.png,1000,5,8,290,WNW,1011,29.87,0,0,19,0,26.7,80,28.8,83.8,26.7,80,2.7,36.8,0,0,0,0,10,6,5.7,9.1
Lucknow,1637656200,11/23/2021 14:00,28.9,84.1,1,Sunny,//cdn.weatherapi.com/weather/64x64/day/113.png,1000,5.1,8.2,289,WNW,1011,29.85,0,0,19,0,26.8,80.3,28.9,84.1,26.8,80.3,2.7,36.9,0,0,0,0,10,6,5.7,9.2
Lucknow,1637659800,11/23/2021 15:00,29.1,84.4,1,Sunny,//cdn.weatherapi.com/weather/64x64/day/113.png,1000,5.1,8.3,288,WNW,1010,29.83,0,0,19,0,27,80.6,29.1,84.4,27,80.6,2.8,37,0,0,0,0,10,6,5.8,9.4
Lucknow,1637663400,11/23/2021 16:00,27.3,81.2,1,Sunny,//cdn.weatherapi.com/weather/64x64/day/113.png,1000,4.9,7.9,294,WNW,1011,29.84,0,0,21,0,25.9,78.7,27.3,81.2,25.9,78.7,3.1,37.6,0,0,0,0,10,6,6.1,9.8
Lucknow,1637667000,11/23/2021 17:00,25.6,78,1,Sunny,//cdn.weatherapi.com/weather/64x64/day/113.png,1000,4.7,7.6,300,WNW,1011,29.85,0,0,24,0,24.9,76.8,25.6,78,24.9,76.8,3.5,38.2,0,0,0,0,10,6,6.4,10.3
Lucknow,1637670600,11/23/2021 18:00,23.8,74.8,0,Clear,//cdn.weatherapi.com/weather/64x64/night/113.png,1000,4.5,7.2,307,NW,1011,29.87,0,0,27,0,23.8,74.8,23.8,74.8,23.8,74.8,3.8,38.8,0,0,0,0,10,6,6.7,10.8
Lucknow,1637674200,11/23/2021 19:00,22.3,72.1,0,Clear,//cdn.weatherapi.com/weather/64x64/night/113.png,1000,4.3,6.8,315,NW,1012,29.88,0,0,28,0,22.3,72.1,22.3,72.1,22.3,72.1,3.1,37.5,0,0,0,0,10,6,7.2,11.5
Lucknow,1637677800,11/23/2021 20:00,20.7,69.3,0,Clear,//cdn.weatherapi.com/weather/64x64/night/113.png,1000,4,6.5,323,NW,1012,29.9,0,0,30,0,20.7,69.3,20.7,69.3,20.7,69.3,2.3,36.2,0,0,0,0,10,6,7.6,12.2
Lucknow,1637681400,11/23/2021 21:00,19.2,66.6,0,Clear,//cdn.weatherapi.com/weather/64x64/night/113.png,1000,3.8,6.1,331,NNW,1013,29.91,0,0,31,0,19.2,66.6,19.2,66.6,19.2,66.6,1.6,34.9,0,0,0,0,10,6,8.1,13
Lucknow,1637685000,11/23/2021 22:00,18.8,65.8,0,Clear,//cdn.weatherapi.com/weather/64x64/night/113.png,1000,3.6,5.8,237,WSW,1013,29.91,0,0,32,0,18.8,65.8,18.8,65.8,18.8,65.8,1.6,34.9,0,0,0,0,10,6,7.5,12.1
Lucknow,1637688600,11/23/2021 23:00,18.4,65.1,0,Clear,//cdn.weatherapi.com/weather/64x64/night/113.png,1000,3.4,5.4,143,SE,1013,29.91,0,0,32,0,18.4,65.1,18.4,65.1,18.4,65.1,1.7,35,0,0,0,0,10,6,7,11.3
